{"type": "FeatureCollection", "features": [{"type": "Feature", "properties": {"name": "Sudan"}, "geometry": {"type": "Polygon", "coordinates": [[[24.567369, 8.229188], [23.805813, 8.666319], [23.459013, 8.954286], [23.394779, 9.265068], [23.55725, 9.681218], [23.554304, 10.089255], [22.977544, 10.714463], [22.864165, 11.142395], [22.87622, 11.38461], [22.50869, 11.67936], [22.49762, 12.26024], [22.28801, 12.64605], [21.93681, 12.58818], [22.03759, 12.95546], [22.29658, 13.37232], [22.18329, 13.78648], [22.51202, 14.09318], [22.30351, 14.32682], [22.56795, 14.94429], [23.02459, 15.68072], [23.88689, 15.61084], [23.83766, 19.58047], [23.85, 20], [25, 20.00304], [25, 22], [29.02, 22], [32.9, 22], [36.86623, 22], [37.18872, 21.01885], [36.96941, 20.83744], [37.1147, 19.80796], [37.48179, 18.61409], [37.86276, 18.36786], [38.41009, 17.998307], [37.904, 17.42754], [37.16747, 17.26314], [36.85253, 16.95655], [36.75389, 16.29186], [36.32322, 14.82249], [36.42951, 14.42211], [36.27022, 13.56333], [35.86363, 12.57828], [35.26049, 12.08286], [34.83163, 11.31896], [34.73115, 10.91017], [34.25745, 10.63009], [33.96162, 9.58358], [33.97498, 8.68456], [33.963393, 9.464285], [33.824963, 9.484061], [33.842131, 9.981915], [33.721959, 10.325262], [33.206938, 10.720112], [33.086766, 11.441141], [33.206938, 12.179338], [32.743419, 12.248008], [32.67475, 12.024832], [32.073892, 11.97333], [32.314235, 11.681484], [32.400072, 11.080626], [31.850716, 10.531271], [31.352862, 9.810241], [30.837841, 9.707237], [29.996639, 10.290927], [29.618957, 10.084919], [29.515953, 9.793074], [29.000932, 9.604232], [28.966597, 9.398224], [27.97089, 9.398224], [27.833551, 9.604232], [27.112521, 9.638567], [26.752006, 9.466893], [26.477328, 9.55273], [25.962307, 10.136421], [25.790633, 10.411099], [25.069604, 10.27376], [24.794926, 9.810241], [24.537415, 8.917538], [24.194068, 8.728696], [23.88698, 8.61973], [24.567369, 8.229188]]]}}, {"type": "Feature", "properties": {"name": "Chad"}, "geometry": {"type": "Polygon", "coordinates": [[[23.83766, 19.58047], [23.88689, 15.61084], [23.02459, 15.68072], [22.56795, 14.94429], [22.30351, 14.32682], [22.51202, 14.09318], [22.18329, 13.78648], [22.29658, 13.37232], [22.03759, 12.95546], [21.93681, 12.58818], [22.28801, 12.64605], [22.49762, 12.26024], [22.50869, 11.67936], [22.87622, 11.38461], [22.864165, 11.142395], [22.231129, 10.971889], [21.723822, 10.567056], [21.000868, 9.475985], [20.059685, 9.012706], [19.094008, 9.074847], [18.81201, 8.982915], [18.911022, 8.630895], [18.389555, 8.281304], [17.96493, 7.890914], [16.705988, 7.508328], [16.456185, 7.734774], [16.290562, 7.754307], [16.106232, 7.497088], [15.27946, 7.421925], [15.436092, 7.692812], [15.120866, 8.38215], [14.979996, 8.796104], [14.544467, 8.965861], [13.954218, 9.549495], [14.171466, 10.021378], [14.627201, 9.920919], [14.909354, 9.992129], [15.467873, 9.982337], [14.923565, 10.891325], [14.960152, 11.555574], [14.89336, 12.21905], [14.495787, 12.859396], [14.595781, 13.330427], [13.954477, 13.353449], [13.956699, 13.996691], [13.540394, 14.367134], [13.97217, 15.68437], [15.247731, 16.627306], [15.300441, 17.92795], [15.685741, 19.95718], [15.903247, 20.387619], [15.487148, 20.730415], [15.47106, 21.04845], [15.096888, 21.308519], [14.8513, 22.86295], [15.86085, 23.40972], [19.84926, 21.49509], [23.83766, 19.58047]]]}}, {"type": "Feature", "properties": {"name": "Senegal"}, "geometry": {"type": "Polygon", "coordinates": [[[-16.713729, 13.594959], [-17.126107, 14.373516], [-17.625043, 14.729541], [-17.185173, 14.919477], [-16.700706, 15.621527], [-16.463098, 16.135036], [-16.12069, 16.455663], [-15.623666, 16.369337], [-15.135737, 16.587282], [-14.577348, 16.598264], [-14.099521, 16.304302], [-13.435738, 16.039383], [-12.830658, 15.303692], [-12.17075, 14.616834], [-12.124887, 13.994727], [-11.927716, 13.422075], [-11.553398, 13.141214], [-11.467899, 12.754519], [-11.513943, 12.442988], [-11.658301, 12.386583], [-12.203565, 12.465648], [-12.278599, 12.35444], [-12.499051, 12.33209], [-13.217818, 12.575874], [-13.700476, 12.586183], [-15.548477, 12.62817], [-15.816574, 12.515567], [-16.147717, 12.547762], [-16.677452, 12.384852], [-16.841525, 13.151394], [-15.931296, 13.130284], [-15.691001, 13.270353], [-15.511813, 13.27857], [-15.141163, 13.509512], [-14.712197, 13.298207], [-14.277702, 13.280585], [-13.844963, 13.505042], [-14.046992, 13.794068], [-14.376714, 13.62568], [-14.687031, 13.630357], [-15.081735, 13.876492], [-15.39877, 13.860369], [-15.624596, 13.623587], [-16.713729, 13.594959]]]}}, {"type": "Feature", "properties": {"name": "Mali"}, "geometry": {"type": "Polygon", "coordinates": [[[-11.513943, 12.442988], [-11.467899, 12.754519], [-11.553398, 13.141214], [-11.927716, 13.422075], [-12.124887, 13.994727], [-12.17075, 14.616834], [-11.834208, 14.799097], [-11.666078, 15.388208], [-11.349095, 15.411256], [-10.650791, 15.132746], [-10.086846, 15.330486], [-9.700255, 15.264107], [-9.550238, 15.486497], [-5.537744, 15.50169], [-5.315277, 16.201854], [-5.488523, 16.325102], [-5.971129, 20.640833], [-6.453787, 24.956591], [-4.923337, 24.974574], [-1.550055, 22.792666], [1.823228, 20.610809], [2.060991, 20.142233], [2.683588, 19.85623], [3.146661, 19.693579], [3.158133, 19.057364], [4.267419, 19.155265], [4.27021, 16.852227], [3.723422, 16.184284], [3.638259, 15.56812], [2.749993, 15.409525], [1.385528, 15.323561], [1.015783, 14.968182], [0.374892, 14.928908], [-0.266257, 14.924309], [-0.515854, 15.116158], [-1.066363, 14.973815], [-2.001035, 14.559008], [-2.191825, 14.246418], [-2.967694, 13.79815], [-3.103707, 13.541267], [-3.522803, 13.337662], [-4.006391, 13.472485], [-4.280405, 13.228444], [-4.427166, 12.542646], [-5.220942, 11.713859], [-5.197843, 11.375146], [-5.470565, 10.95127], [-5.404342, 10.370737], [-5.816926, 10.222555], [-6.050452, 10.096361], [-6.205223, 10.524061], [-6.493965, 10.411303], [-6.666461, 10.430811], [-6.850507, 10.138994], [-7.622759, 10.147236], [-7.89959, 10.297382], [-8.029944, 10.206535], [-8.335377, 10.494812], [-8.282357, 10.792597], [-8.407311, 10.909257], [-8.620321, 10.810891], [-8.581305, 11.136246], [-8.376305, 11.393646], [-8.786099, 11.812561], [-8.905265, 12.088358], [-9.127474, 12.30806], [-9.327616, 12.334286], [-9.567912, 12.194243], [-9.890993, 12.060479], [-10.165214, 11.844084], [-10.593224, 11.923975], [-10.87083, 12.177887], [-11.036556, 12.211245], [-11.297574, 12.077971], [-11.456169, 12.076834], [-11.513943, 12.442988]]]}}, {"type": "Feature", "properties": {"name": "Mauritania"}, "geometry": {"type": "Polygon", "coordinates": [[[-17.063423, 20.999752], [-16.845194, 21.333323], [-12.929102, 21.327071], [-13.118754, 22.77122], [-12.874222, 23.284832], [-11.937224, 23.374594], [-11.969419, 25.933353], [-8.687294, 25.881056], [-8.6844, 27.395744], [-4.923337, 24.974574], [-6.453787, 24.956591], [-5.971129, 20.640833], [-5.488523, 16.325102], [-5.315277, 16.201854], [-5.537744, 15.50169], [-9.550238, 15.486497], [-9.700255, 15.264107], [-10.086846, 15.330486], [-10.650791, 15.132746], [-11.349095, 15.411256], [-11.666078, 15.388208], [-11.834208, 14.799097], [-12.17075, 14.616834], [-12.830658, 15.303692], [-13.435738, 16.039383], [-14.099521, 16.304302], [-14.577348, 16.598264], [-15.135737, 16.587282], [-15.623666, 16.369337], [-16.12069, 16.455663], [-16.463098, 16.135036], [-16.549708, 16.673892], [-16.270552, 17.166963], [-16.146347, 18.108482], [-16.256883, 19.096716], [-16.377651, 19.593817], [-16.277838, 20.092521], [-16.536324, 20.567866], [-17.063423, 20.999752]]]}}, {"type": "Feature", "properties": {"name": "Niger"}, "geometry": {"type": "Polygon", "coordinates": [[[14.8513, 22.86295], [15.096888, 21.308519], [15.47106, 21.04845], [15.487148, 20.730415], [15.903247, 20.387619], [15.685741, 19.95718], [15.300441, 17.92795], [15.247731, 16.627306], [13.97217, 15.68437], [13.540394, 14.367134], [13.956699, 13.996691], [13.954477, 13.353449], [14.595781, 13.330427], [14.495787, 12.859396], [14.213531, 12.802035], [14.181336, 12.483657], [13.995353, 12.461565], [13.318702, 13.556356], [13.083987, 13.596147], [12.302071, 13.037189], [11.527803, 13.32898], [10.989593, 13.387323], [10.701032, 13.246918], [10.114814, 13.277252], [9.524928, 12.851102], [9.014933, 12.826659], [7.804671, 13.343527], [7.330747, 13.098038], [6.820442, 13.115091], [6.445426, 13.492768], [5.443058, 13.865924], [4.368344, 13.747482], [4.107946, 13.531216], [3.967283, 12.956109], [3.680634, 12.552903], [3.61118, 11.660167], [2.848643, 12.235636], [2.490164, 12.233052], [2.154474, 11.94015], [2.177108, 12.625018], [1.024103, 12.851826], [0.993046, 13.33575], [0.429928, 13.988733], [0.295646, 14.444235], [0.374892, 14.928908], [1.015783, 14.968182], [1.385528, 15.323561], [2.749993, 15.409525], [3.638259, 15.56812], [3.723422, 16.184284], [4.27021, 16.852227], [4.267419, 19.155265], [5.677566, 19.601207], [8.572893, 21.565661], [11.999506, 23.471668], [13.581425, 23.040506], [14.143871, 22.491289], [14.8513, 22.86295]]]}}, {"type": "Feature", "properties": {"name": "Nigeria"}, "geometry": {"type": "Polygon", "coordinates": [[[2.691702, 6.258817], [2.749063, 7.870734], [2.723793, 8.506845], [2.912308, 9.137608], [3.220352, 9.444153], [3.705438, 10.06321], [3.60007, 10.332186], [3.797112, 10.734746], [3.572216, 11.327939], [3.61118, 11.660167], [3.680634, 12.552903], [3.967283, 12.956109], [4.107946, 13.531216], [4.368344, 13.747482], [5.443058, 13.865924], [6.445426, 13.492768], [6.820442, 13.115091], [7.330747, 13.098038], [7.804671, 13.343527], [9.014933, 12.826659], [9.524928, 12.851102], [10.114814, 13.277252], [10.701032, 13.246918], [10.989593, 13.387323], [11.527803, 13.32898], [12.302071, 13.037189], [13.083987, 13.596147], [13.318702, 13.556356], [13.995353, 12.461565], [14.181336, 12.483657], [14.577178, 12.085361], [14.468192, 11.904752], [14.415379, 11.572369], [13.57295, 10.798566], [13.308676, 10.160362], [13.1676, 9.640626], [12.955468, 9.417772], [12.753672, 8.717763], [12.218872, 8.305824], [12.063946, 7.799808], [11.839309, 7.397042], [11.745774, 6.981383], [11.058788, 6.644427], [10.497375, 7.055358], [10.118277, 7.03877], [9.522706, 6.453482], [9.233163, 6.444491], [8.757533, 5.479666], [8.500288, 4.771983], [7.462108, 4.412108], [7.082596, 4.464689], [6.698072, 4.240594], [5.898173, 4.262453], [5.362805, 4.887971], [5.033574, 5.611802], [4.325607, 6.270651], [3.57418, 6.2583], [2.691702, 6.258817]]]}}, {"type": "Feature", "properties": {"name": "Burkina Faso"}, "geometry": {"type": "Polygon", "coordinates": [[[-5.404342, 10.370737], [-5.470565, 10.95127], [-5.197843, 11.375146], [-5.220942, 11.713859], [-4.427166, 12.542646], [-4.280405, 13.228444], [-4.006391, 13.472485], [-3.522803, 13.337662], [-3.103707, 13.541267], [-2.967694, 13.79815], [-2.191825, 14.246418], [-2.001035, 14.559008], [-1.066363, 14.973815], [-0.515854, 15.116158], [-0.266257, 14.924309], [0.374892, 14.928908], [0.295646, 14.444235], [0.429928, 13.988733], [0.993046, 13.33575], [1.024103, 12.851826], [2.177108, 12.625018], [2.154474, 11.94015], [1.935986, 11.64115], [1.447178, 11.547719], [1.24347, 11.110511], [0.899563, 10.997339], [0.023803, 11.018682], [-0.438702, 11.098341], [-0.761576, 10.93693], [-1.203358, 11.009819], [-2.940409, 10.96269], [-2.963896, 10.395335], [-2.827496, 9.642461], [-3.511899, 9.900326], [-3.980449, 9.862344], [-4.330247, 9.610835], [-4.779884, 9.821985], [-4.954653, 10.152714], [-5.404342, 10.370737]]]}}, {"type": "Feature", "properties": {"name": "Eritrea"}, "geometry": {"type": "Polygon", "coordinates": [[[36.42951, 14.42211], [36.32322, 14.82249], [36.75389, 16.29186], [36.85253, 16.95655], [37.16747, 17.26314], [37.904, 17.42754], [38.41009, 17.998307], [38.990623, 16.840626], [39.26611, 15.922723], [39.814294, 15.435647], [41.179275, 14.49108], [41.734952, 13.921037], [42.276831, 13.343992], [42.589576, 13.000421], [43.081226, 12.699639], [42.779642, 12.455416], [42.35156, 12.54223], [42.00975, 12.86582], [41.59856, 13.45209], [41.1552, 13.77333], [40.8966, 14.11864], [40.02625, 14.51959], [39.34061, 14.53155], [39.0994, 14.74064], [38.51295, 14.50547], [37.90607, 14.95943], [37.59377, 14.2131], [36.42951, 14.42211]]]}}, {"type": "Feature", "properties": {"name": "Ethiopia"}, "geometry": {"type": "Polygon", "coordinates": [[[47.78942, 8.003], [44.9636, 5.00162], [43.66087, 4.95755], [42.76967, 4.25259], [42.12861, 4.23413], [41.855083, 3.918912], [41.1718, 3.91909], [40.76848, 4.25702], [39.85494, 3.83879], [39.559384, 3.42206], [38.89251, 3.50074], [38.67114, 3.61607], [38.43697, 3.58851], [38.120915, 3.598605], [36.855093, 4.447864], [36.159079, 4.447864], [35.817448, 4.776966], [35.817448, 5.338232], [35.298007, 5.506], [34.70702, 6.59422], [34.25032, 6.82607], [34.0751, 7.22595], [33.56829, 7.71334], [32.95418, 7.78497], [33.2948, 8.35458], [33.8255, 8.37916], [33.97498, 8.68456], [33.96162, 9.58358], [34.25745, 10.63009], [34.73115, 10.91017], [34.83163, 11.31896], [35.26049, 12.08286], [35.86363, 12.57828], [36.27022, 13.56333], [36.42951, 14.42211], [37.59377, 14.2131], [37.90607, 14.95943], [38.51295, 14.50547], [39.0994, 14.74064], [39.34061, 14.53155], [40.02625, 14.51959], [40.8966, 14.11864], [41.1552, 13.77333], [41.59856, 13.45209], [42.00975, 12.86582], [42.35156, 12.54223], [42, 12.1], [41.66176, 11.6312], [41.73959, 11.35511], [41.75557, 11.05091], [42.31414, 11.0342], [42.55493, 11.10511], [42.776852, 10.926879], [42.55876, 10.57258], [42.92812, 10.02194], [43.29699, 9.54048], [43.67875, 9.18358], [46.94834, 7.99688], [47.78942, 8.003]]]}}, {"type": "Feature", "properties": {"name": "Djibouti"}, "geometry": {"type": "Polygon", "coordinates": [[[42.35156, 12.54223], [42.779642, 12.455416], [43.081226, 12.699639], [43.317852, 12.390148], [43.286381, 11.974928], [42.715874, 11.735641], [43.145305, 11.46204], [42.776852, 10.926879], [42.55493, 11.10511], [42.31414, 11.0342], [41.75557, 11.05091], [41.73959, 11.35511], [41.66176, 11.6312], [42, 12.1], [42.35156, 12.54223]]]}}]}