{"type": "FeatureCollection", "features": [{"type": "Feature", "properties": {"name": "Libya", "iso": "LBY"}, "bbox": [9.310254, 19.496631, 25.150488, 33.181934], "geometry": {"type": "Polygon", "coordinates": [[[9.51875, 30.229395], [9.807422, 30.342236], [9.93252, 30.425342], [10.125977, 30.665967], [10.256055, 30.864941], [10.243359, 31.032129], [10.114941, 31.46377], [10.195996, 31.585107], [10.306055, 31.704834], [10.543652, 31.802539], [10.608887, 31.929541], [10.771582, 32.021191], [11.005176, 32.172705], [11.358008, 32.345215], [11.535938, 32.47334], [11.453906, 32.642578], [11.45918, 32.897363], [11.502441, 33.155566], [11.657129, 33.118896], [12.279883, 32.858545], [12.753516, 32.801074], [13.283496, 32.914648], [13.647754, 32.798828], [14.155664, 32.709766], [14.423828, 32.550293], [15.176563, 32.391162], [15.359082, 32.159668], [15.414062, 31.834229], [15.595801, 31.531104], [15.832227, 31.360986], [16.450977, 31.227295], [17.349219, 31.081494], [17.949316, 30.851904], [18.669824, 30.415674], [19.12373, 30.266113], [19.589844, 30.41377], [20.013184, 30.800684], [20.150977, 31.078613], [20.103809, 31.300537], [19.96123, 31.556006], [19.973438, 31.999072], [20.121484, 32.21875], [20.621094, 32.580176], [21.31875, 32.777686], [21.635938, 32.937305], [21.839453, 32.908643], [22.340625, 32.879883], [22.754102, 32.740527], [23.090625, 32.61875], [23.110449, 32.397412], [23.286328, 32.213818], [23.898438, 32.127197], [24.129688, 32.009229], [24.683887, 32.015967], [24.950684, 31.953711], [25.115039, 31.712305], [25.112012, 31.626904], [25.022656, 31.514014], [24.852734, 31.334814], [24.877539, 31.06123], [24.973926, 30.776562], [24.923047, 30.558008], [24.726465, 30.250586], [24.711621, 30.131543], [24.81084, 29.80874], [24.916113, 29.37627], [24.980273, 29.181885], [24.980273, 28.732764], [24.980273, 28.283643], [24.980273, 27.834521], [24.980273, 27.3854], [24.980273, 26.93623], [24.980273, 26.487109], [24.980273, 26.037988], [24.980273, 25.588867], [24.980273, 25.139746], [24.980273, 24.690625], [24.980273, 24.241504], [24.980273, 23.792383], [24.980273, 23.343213], [24.980273, 22.894092], [24.980273, 22.444971], [24.980273, 21.99585], [24.979883, 20.999219], [24.979492, 20.002588], [24.973242, 19.999023], [24.966992, 19.995459], [24.473633, 19.995703], [23.980273, 19.995947], [23.980273, 19.746289], [23.980273, 19.496631], [23.022168, 19.969775], [22.064063, 20.44292], [21.105859, 20.916113], [20.147656, 21.389258], [19.189453, 21.862402], [18.231348, 22.335547], [17.273242, 22.808691], [16.315039, 23.281836], [15.627148, 23.285742], [14.979004, 22.996191], [14.555664, 22.78252], [14.215527, 22.619678], [13.862695, 22.9021], [13.48125, 23.180176], [12.48877, 23.40166], [11.873047, 23.694824], [11.624219, 24.139697], [11.507617, 24.314355], [10.686133, 24.551367], [10.395898, 24.485596], [10.255859, 24.591016], [10.119531, 24.790234], [10.019043, 25.258545], [9.781055, 25.624268], [9.448242, 26.067139], [9.437891, 26.245508], [9.684961, 26.438232], [9.883203, 26.630811], [9.837109, 26.91582], [9.752539, 27.219336], [9.825293, 27.552979], [9.858203, 28.043311], [9.842578, 28.966992], [9.805273, 29.176953], [9.672656, 29.566992], [9.546191, 29.795947], [9.310254, 30.115234], [9.51875, 30.229395]]]}}]}