{"type": "FeatureCollection", "name": "sahel-countries", "features": [{"type": "Feature", "properties": {"country": "MLI", "name": "Mali"}, "geometry": {"type": "Polygon", "coordinates": [[[-4.485251, 12.714677], [-4.491323, 12.662794], [-4.482538, 12.646258], [-4.439078, 12.613288], [-4.42249, 12.597217], [-4.401406, 12.550398], [-4.392647, 12.537427], [-4.387247, 12.533965], [-4.386885, 12.530192], [-4.393448, 12.516446], [-4.407607, 12.497946], [-4.426624, 12.479653], [-4.443678, 12.459447], [-4.451636, 12.435314], [-4.415359, 12.350307], [-4.406135, 12.307467], [-4.435823, 12.301731], [-4.444814, 12.309431], [-4.452669, 12.320283], [-4.462488, 12.328189], [-4.47719, 12.327311], [-4.488171, 12.320696], [-4.490703, 12.313823], [-4.490496, 12.305762], [-4.49401, 12.290104], [-4.492253, 12.278838], [-4.493545, 12.272844], [-4.497421, 12.26871], [-4.585529, 12.197241], [-4.560466, 12.149492], [-4.570233, 12.138898], [-4.600309, 12.137555], [-4.636121, 12.117556], [-4.646663, 12.098022], [-4.648678, 12.081951], [-4.652737, 12.071627], [-4.653716, 12.069135], [-4.673586, 12.05973], [-4.683715, 12.059058], [-4.704023, 12.061487], [-4.714617, 12.059007], [-4.725133, 12.050118], [-4.732281, 12.037263], [-4.738983, 12.02521], [-4.746889, 12.015082], [-4.761281, 12.006607], [-4.789522, 12.001801], [-4.806808, 11.996271], [-4.826238, 12.012705], [-4.847245, 12.013066], [-4.889955, 11.997925], [-4.910677, 11.998132], [-4.932071, 12.003144], [-4.95375, 12.005108], [-4.975454, 11.996271], [-4.984523, 11.988572], [-4.994238, 11.983249], [-5.004703, 11.980665], [-5.016046, 11.981285], [-5.034313, 11.97927], [-5.073768, 11.98051], [-5.089323, 11.97927], [-5.103947, 11.972759], [-5.136994, 11.953122], [-5.167819, 11.943665], [-5.182909, 11.930901], [-5.209471, 11.901497], [-5.248228, 11.870439], [-5.268227, 11.843051], [-5.275151, 11.837418], [-5.282489, 11.836436], [-5.288019, 11.839123], [-5.293445, 11.843206], [-5.300163, 11.846358], [-5.306519, 11.846048], [-5.311066, 11.842896], [-5.314839, 11.83933], [-5.319025, 11.837418], [-5.353803, 11.831734], [-5.357058, 11.829615], [-5.364552, 11.82176], [-5.369874, 11.820158], [-5.37561, 11.822225], [-5.387909, 11.830804], [-5.392302, 11.832354], [-5.405944, 11.830442], [-5.412352, 11.82853], [-5.412197, 11.823569], [-5.405996, 11.812303], [-5.400415, 11.810185], [-5.374525, 11.79525], [-5.370649, 11.791064], [-5.353286, 11.794527], [-5.344656, 11.793907], [-5.334269, 11.790806], [-5.314787, 11.782486], [-5.298974, 11.772668], [-5.28714, 11.758922], [-5.279544, 11.739026], [-5.278562, 11.721456], [-5.280681, 11.699494], [-5.289259, 11.660426], [-5.294788, 11.650298], [-5.302281, 11.639859], [-5.307811, 11.629007], [-5.307604, 11.617638], [-5.299956, 11.606424], [-5.290964, 11.604461], [-5.280732, 11.605753], [-5.269467, 11.604099], [-5.233914, 11.575987], [-5.224663, 11.54077], [-5.224612, 11.45801], [-5.219186, 11.435143], [-5.218307, 11.422198], [-5.22642, 11.41349], [-5.248176, 11.403181], [-5.263472, 11.390184], [-5.267865, 11.37202], [-5.26094, 11.267737], [-5.262852, 11.251588], [-5.275255, 11.230711], [-5.306726, 11.199395], [-5.316182, 11.176322], [-5.322332, 11.135549], [-5.332512, 11.12157], [-5.356283, 11.106894], [-5.373026, 11.099763], [-5.390131, 11.094699], [-5.489764, 11.082115], [-5.504233, 11.072684], [-5.507334, 11.056949], [-5.505602, 11.047985], [-5.495603, 10.996203], [-5.501804, 10.97021], [-5.479118, 10.975533], [-5.465579, 10.947886], [-5.447027, 10.877993], [-5.43509, 10.856909], [-5.431421, 10.844688], [-5.445322, 10.786991], [-5.445012, 10.778568], [-5.446459, 10.768698], [-5.45297, 10.763969], [-5.461186, 10.760042], [-5.467956, 10.752678], [-5.473072, 10.737873], [-5.482632, 10.684233], [-5.482115, 10.675215], [-5.477154, 10.658808], [-5.475914, 10.650385], [-5.460566, 10.644571], [-5.470488, 10.635605], [-5.477413, 10.61956], [-5.47855, 10.604238], [-5.471057, 10.597365], [-5.468111, 10.58783], [-5.48165, 10.535327], [-5.505163, 10.499179], [-5.508987, 10.490937], [-5.5171, 10.439984], [-5.522578, 10.425489], [-5.549708, 10.435643], [-5.571722, 10.44988], [-5.584383, 10.454247], [-5.594047, 10.453937], [-5.621797, 10.446935], [-5.677556, 10.441508], [-5.806282, 10.413474], [-5.87806, 10.37606], [-5.893305, 10.365027], [-5.904829, 10.348284], [-5.908963, 10.330068], [-5.904725, 10.275291], [-5.916404, 10.266635], [-5.963016, 10.282733], [-5.974747, 10.273638], [-5.978313, 10.248626], [-5.985237, 10.227284], [-5.997123, 10.208189], [-6.015933, 10.18987], [-6.105333, 10.189276], [-6.180884, 10.215838], [-6.19432, 10.224183], [-6.214009, 10.247851], [-6.224809, 10.255034], [-6.240002, 10.251933], [-6.243309, 10.289011], [-6.240674, 10.302576], [-6.228323, 10.31609], [-6.225894, 10.314488], [-6.22114, 10.310354], [-6.21437, 10.307796], [-6.206154, 10.310819], [-6.203984, 10.316038], [-6.205379, 10.322627], [-6.207808, 10.328518], [-6.208324, 10.33198], [-6.183933, 10.358852], [-6.198764, 10.370815], [-6.195664, 10.389212], [-6.180574, 10.420218], [-6.196904, 10.439157], [-6.200366, 10.448769], [-6.198196, 10.457399], [-6.187499, 10.475408], [-6.185793, 10.481325], [-6.190289, 10.491144], [-6.196129, 10.494684], [-6.20419, 10.494373], [-6.215662, 10.492616], [-6.222432, 10.494632], [-6.228168, 10.500575], [-6.233491, 10.507577], [-6.238658, 10.512744], [-6.24765, 10.51383], [-6.256022, 10.511608], [-6.261293, 10.514088], [-6.260931, 10.529152], [-6.256228, 10.537239], [-6.237935, 10.551941], [-6.231372, 10.560235], [-6.230028, 10.572043], [-6.232871, 10.58411], [-6.238658, 10.597985], [-6.2307, 10.606925], [-6.219797, 10.61186], [-6.209771, 10.617751], [-6.204449, 10.629611], [-6.207808, 10.637543], [-6.216903, 10.645088], [-6.227755, 10.65085], [-6.246617, 10.657619], [-6.249459, 10.665603], [-6.244446, 10.706867], [-6.245841, 10.720742], [-6.25597, 10.726478], [-6.28, 10.723274], [-6.303564, 10.713171], [-6.322219, 10.700485], [-6.341701, 10.691442], [-6.367539, 10.692268], [-6.388055, 10.695524], [-6.409811, 10.694387], [-6.427019, 10.686093], [-6.433995, 10.667929], [-6.435856, 10.628706], [-6.430688, 10.61496], [-6.419061, 10.6077], [-6.406658, 10.60186], [-6.399217, 10.592481], [-6.402783, 10.569123], [-6.42149, 10.556592], [-6.445984, 10.552251], [-6.466965, 10.553543], [-6.52138, 10.564214], [-6.537555, 10.569692], [-6.578069, 10.591138], [-6.598585, 10.604909], [-6.613623, 10.618474], [-6.633983, 10.65302], [-6.647109, 10.66134], [-6.669175, 10.654157], [-6.667883, 10.650901], [-6.681939, 10.627389], [-6.684213, 10.626562], [-6.688967, 10.607855], [-6.691086, 10.589432], [-6.689225, 10.580931], [-6.685608, 10.574007], [-6.682817, 10.565971], [-6.687778, 10.52047], [-6.697545, 10.488301], [-6.695788, 10.471197], [-6.683076, 10.451689], [-6.675634, 10.447865], [-6.664627, 10.444557], [-6.653982, 10.440036], [-6.647781, 10.432698], [-6.647936, 10.421871], [-6.653052, 10.413061], [-6.659615, 10.405361], [-6.663955, 10.397997], [-6.66827, 10.36584], [-6.668916, 10.361022], [-6.677391, 10.349034], [-6.700336, 10.34167], [-6.722557, 10.344047], [-6.760229, 10.366113], [-6.782088, 10.373037], [-6.803895, 10.370867], [-6.862755, 10.34384], [-6.88203, 10.341256], [-6.938719, 10.348336], [-6.96125, 10.344874], [-6.973136, 10.33229], [-6.997113, 10.25276], [-6.994891, 10.239402], [-6.984298, 10.230384], [-6.971172, 10.222065], [-6.961612, 10.211032], [-6.95939, 10.185503], [-6.971637, 10.164419], [-6.992411, 10.149097], [-7.015769, 10.140881], [-7.040522, 10.140054], [-7.058247, 10.15597], [-7.073129, 10.178527], [-7.089459, 10.19757], [-7.106357, 10.207259], [-7.204749, 10.234493], [-7.284021, 10.246559], [-7.346963, 10.247903], [-7.363396, 10.252192], [-7.371819, 10.264517], [-7.372698, 10.288598], [-7.366342, 10.329448], [-7.372336, 10.34477], [-7.395022, 10.346217], [-7.422204, 10.336089], [-7.431402, 10.333737], [-7.444425, 10.334202], [-7.445768, 10.340378], [-7.443288, 10.349964], [-7.444683, 10.360816], [-7.461478, 10.388643], [-7.465457, 10.398617], [-7.46618, 10.40748], [-7.465354, 10.417996], [-7.46618, 10.429494], [-7.471606, 10.441095], [-7.480236, 10.450293], [-7.489848, 10.456107], [-7.501475, 10.458639], [-7.515841, 10.457812], [-7.539613, 10.427633], [-7.547416, 10.420502], [-7.556382, 10.417272], [-7.574339, 10.417531], [-7.584416, 10.416523], [-7.607774, 10.418719], [-7.643689, 10.440475], [-7.664411, 10.437142], [-7.670044, 10.42877], [-7.673971, 10.416394], [-7.679036, 10.405929], [-7.687924, 10.403087], [-7.69981, 10.404534], [-7.708646, 10.402467], [-7.722289, 10.391331], [-7.722289, 10.384484], [-7.726785, 10.382882], [-7.736035, 10.378282], [-7.723994, 10.363606], [-7.735337, 10.347096], [-7.757429, 10.334047], [-7.777583, 10.329862], [-7.764405, 10.312912], [-7.776342, 10.292732], [-7.778254, 10.27834], [-7.783835, 10.270434], [-7.791225, 10.265783], [-7.797736, 10.260279], [-7.80125, 10.249453], [-7.805074, 10.241831], [-7.829001, 10.211652], [-7.838664, 10.203719], [-7.847423, 10.197932], [-7.857216, 10.194418], [-7.882847, 10.190826], [-7.892253, 10.184832], [-7.910959, 10.169406], [-7.929046, 10.160957], [-7.949872, 10.155428], [-7.970904, 10.155066], [-7.989663, 10.161991], [-7.96801, 10.209998], [-7.962584, 10.233252], [-7.9646, 10.258936], [-7.971214, 10.281802], [-7.981549, 10.307021], [-7.996277, 10.32826], [-8.015708, 10.339344], [-8.070071, 10.341876], [-8.096116, 10.346734], [-8.115495, 10.360247], [-8.120921, 10.373037], [-8.122109, 10.399496], [-8.125417, 10.411665], [-8.135442, 10.427323], [-8.142056, 10.429649], [-8.150583, 10.424533], [-8.165983, 10.418099], [-8.18903, 10.413629], [-8.210579, 10.414068], [-8.228873, 10.423422], [-8.253884, 10.469827], [-8.284425, 10.511246], [-8.295535, 10.537446], [-8.311142, 10.735289], [-8.315586, 10.753092], [-8.341941, 10.763246], [-8.339822, 10.783865], [-8.318893, 10.83952], [-8.311814, 10.847246], [-8.305871, 10.856289], [-8.303649, 10.874893], [-8.305096, 10.978246], [-8.311142, 11.000803], [-8.326593, 11.02385], [-8.347315, 11.043126], [-8.369329, 11.054236], [-8.381318, 11.053926], [-8.400645, 11.043332], [-8.410464, 11.041911], [-8.429067, 11.048293], [-8.438162, 11.04974], [-8.448704, 11.047105], [-8.469013, 11.046381], [-8.489064, 11.052737], [-8.505755, 11.052789], [-8.531645, 10.999046], [-8.541567, 10.983775], [-8.55955, 10.971605], [-8.575622, 10.966748], [-8.593347, 10.964707], [-8.611382, 10.965146], [-8.628228, 10.967833], [-8.647969, 10.965818], [-8.665229, 10.956955], [-8.680938, 10.952304], [-8.696234, 10.962743], [-8.70073, 10.978452], [-8.696906, 10.996048], [-8.68869, 11.012559], [-8.679801, 11.025194], [-8.63368, 11.071289], [-8.623112, 11.091262], [-8.622389, 11.102605], [-8.624921, 11.112191], [-8.624611, 11.122035], [-8.615413, 11.13405], [-8.607222, 11.137151], [-8.586991, 11.137461], [-8.578154, 11.14206], [-8.569679, 11.157796], [-8.563943, 11.193426], [-8.551799, 11.210738], [-8.544616, 11.214975], [-8.5241, 11.22376], [-8.515625, 11.229057], [-8.51206, 11.230298], [-8.502138, 11.231176], [-8.498779, 11.233501], [-8.497022, 11.24071], [-8.499244, 11.246705], [-8.502345, 11.25164], [-8.50312, 11.255412], [-8.492578, 11.277788], [-8.483224, 11.28492], [-8.44457, 11.276264], [-8.426897, 11.274197], [-8.406691, 11.275282], [-8.388398, 11.281406], [-8.376719, 11.294661], [-8.371035, 11.32055], [-8.381267, 11.325098], [-8.39956, 11.322152], [-8.417957, 11.325511], [-8.42607, 11.340472], [-8.414133, 11.353468], [-8.393359, 11.363003], [-8.375324, 11.367654], [-8.397648, 11.385895], [-8.427724, 11.40008], [-8.488134, 11.418193], [-8.51578, 11.418968], [-8.527563, 11.423387], [-8.535521, 11.438088], [-8.539425, 11.456312], [-8.543996, 11.477647], [-8.549577, 11.490127], [-8.575208, 11.470283], [-8.602183, 11.472092], [-8.656754, 11.496431], [-8.667967, 11.510875], [-8.679026, 11.52984], [-8.687346, 11.55002], [-8.690705, 11.568029], [-8.712874, 11.640066], [-8.726517, 11.649471], [-8.740366, 11.646164], [-8.756541, 11.638826], [-8.777211, 11.635932], [-8.795195, 11.641926], [-8.81168, 11.651745], [-8.828526, 11.659186], [-8.847233, 11.657946], [-8.797004, 11.913227], [-8.79783, 11.925113], [-8.803205, 11.934932], [-8.809974, 11.94444], [-8.814909, 11.955395], [-8.816434, 11.976841], [-8.815452, 11.995703], [-8.819793, 12.012653], [-8.837983, 12.028156], [-8.858757, 12.031825], [-8.88165, 12.029189], [-8.903715, 12.030378], [-8.922112, 12.045364], [-8.926298, 12.064278], [-8.921957, 12.086033], [-8.906971, 12.125359], [-8.906041, 12.147735], [-8.913896, 12.169853], [-8.927021, 12.187371], [-8.942008, 12.195846], [-8.961696, 12.187991], [-8.97384, 12.187578], [-8.981178, 12.198946], [-8.984537, 12.20892], [-8.994278, 12.224836], [-8.99756, 12.23481], [-8.995906, 12.26101], [-8.985261, 12.282094], [-8.972135, 12.301989], [-8.963092, 12.32421], [-8.964745, 12.346276], [-8.975907, 12.368704], [-8.993839, 12.387514], [-9.027765, 12.404751], [-9.147318, 12.465493], [-9.189486, 12.479239], [-9.265864, 12.495207], [-9.278938, 12.494432], [-9.286379, 12.488128], [-9.294079, 12.483787], [-9.308187, 12.488955], [-9.321519, 12.496603], [-9.327307, 12.497533], [-9.33418, 12.496293], [-9.350872, 12.484614], [-9.398155, 12.473245], [-9.412573, 12.455365], [-9.407251, 12.445133], [-9.392781, 12.428028], [-9.374694, 12.41113], [-9.347151, 12.396454], [-9.344464, 12.389012], [-9.343947, 12.380124], [-9.339167, 12.370616], [-9.331648, 12.366326], [-9.314801, 12.362657], [-9.309169, 12.357748], [-9.308497, 12.345036], [-9.312889, 12.32607], [-9.321829, 12.310206], [-9.335007, 12.306537], [-9.331906, 12.282766], [-9.336816, 12.269846], [-9.360173, 12.246644], [-9.421513, 12.257082], [-9.438877, 12.254757], [-9.479598, 12.235843], [-9.495876, 12.224681], [-9.515616, 12.20706], [-9.628167, 12.170163], [-9.66, 12.149802], [-9.675141, 12.133989], [-9.682273, 12.118538], [-9.683668, 12.101485], [-9.681549, 12.080814], [-9.686303, 12.068153], [-9.698809, 12.050997], [-9.722994, 12.025417], [-9.778649, 12.026657], [-9.796632, 12.032342], [-9.806813, 12.038439], [-9.823039, 12.050893], [-9.833684, 12.055131], [-9.840661, 12.055028], [-9.861125, 12.051875], [-9.870736, 12.052082], [-9.888772, 12.060557], [-9.923188, 12.087584], [-9.941533, 12.092751], [-9.961584, 12.096007], [-9.996414, 12.114145], [-10.015534, 12.119881], [-10.027678, 12.125669], [-10.04809, 12.141379], [-10.060182, 12.147528], [-10.070363, 12.149854], [-10.087002, 12.150577], [-10.09034, 12.151584], [-10.097286, 12.153678], [-10.105192, 12.158639], [-10.118835, 12.170163], [-10.128654, 12.174503], [-10.135837, 12.175485], [-10.160228, 12.174503], [-10.179762, 12.178224], [-10.21485, 12.194606], [-10.247819, 12.201065], [-10.254124, 12.207215], [-10.258981, 12.213778], [-10.26694, 12.217808], [-10.304974, 12.202874], [-10.31102, 12.19104], [-10.313603, 12.191143], [-10.316497, 12.196879], [-10.323577, 12.201995], [-10.325592, 12.199773], [-10.329882, 12.19042], [-10.339338, 12.185459], [-10.348433, 12.184787], [-10.354118, 12.18086], [-10.353394, 12.166494], [-10.368225, 12.171506], [-10.37484, 12.174814], [-10.381403, 12.180136], [-10.39458, 12.17161], [-10.428945, 12.143394], [-10.435973, 12.135178], [-10.445688, 12.120708], [-10.493489, 12.124429], [-10.511628, 12.118073], [-10.512661, 12.108461], [-10.504445, 12.088359], [-10.507959, 12.084586], [-10.517312, 12.080349], [-10.517674, 12.070737], [-10.514883, 12.060144], [-10.51509, 12.052909], [-10.535399, 12.038698], [-10.555449, 12.029344], [-10.566508, 12.017252], [-10.55948, 11.995186], [-10.574983, 11.990329], [-10.595653, 11.97989], [-10.613792, 11.967694], [-10.621543, 11.957669], [-10.625264, 11.943872], [-10.634152, 11.925423], [-10.645159, 11.90837], [-10.655081, 11.898965], [-10.669964, 11.89204], [-10.711357, 11.890386], [-10.740347, 11.919894], [-10.781017, 11.99622], [-10.807785, 12.022833], [-10.812436, 12.033427], [-10.811041, 12.04154], [-10.801222, 12.059213], [-10.798535, 12.068102], [-10.804943, 12.095955], [-10.822926, 12.110476], [-10.846387, 12.12138], [-10.869642, 12.138433], [-10.909794, 12.200135], [-10.927675, 12.212951], [-10.952117, 12.219462], [-10.972013, 12.218583], [-11.015473, 12.204424], [-11.038779, 12.205251], [-11.052318, 12.202512], [-11.059811, 12.192435], [-11.072782, 12.149492], [-11.084306, 12.136573], [-11.116604, 12.113732], [-11.117477, 12.112702], [-11.122081, 12.107272], [-11.136292, 12.085103], [-11.14425, 12.081331], [-11.152725, 12.080866], [-11.159392, 12.077507], [-11.165644, 12.04862], [-11.176342, 12.029499], [-11.184624, 12.021072], [-11.191173, 12.01441], [-11.206986, 12.010172], [-11.223315, 12.009294], [-11.25551, 11.996168], [-11.274992, 11.996271], [-11.294681, 12.003093], [-11.315144, 12.013325], [-11.334678, 12.026192], [-11.351318, 12.040403], [-11.391729, 12.093733], [-11.409557, 12.107893], [-11.470794, 12.134609], [-11.489604, 12.151197], [-11.507794, 12.191608], [-11.491671, 12.220909], [-11.463249, 12.249951], [-11.444594, 12.289484], [-11.444904, 12.312531], [-11.451467, 12.352115], [-11.447229, 12.374543], [-11.431675, 12.382966], [-11.407594, 12.381933], [-11.388628, 12.384465], [-11.388422, 12.403895], [-11.386561, 12.430457], [-11.379792, 12.456864], [-11.377776, 12.480221], [-11.390437, 12.497533], [-11.392607, 12.491848], [-11.400514, 12.479549], [-11.402374, 12.488541], [-11.408679, 12.504923], [-11.410849, 12.513346], [-11.416999, 12.529314], [-11.42475, 12.526368], [-11.430383, 12.515723], [-11.429814, 12.508333], [-11.437876, 12.515361], [-11.449451, 12.535205], [-11.456686, 12.539753], [-11.467797, 12.543525], [-11.460614, 12.549829], [-11.43984, 12.559286], [-11.437359, 12.570758], [-11.438599, 12.577993], [-11.440925, 12.584866], [-11.441803, 12.595511], [-11.436636, 12.627086], [-11.436842, 12.637473], [-11.441752, 12.647756], [-11.449555, 12.653182], [-11.457151, 12.655973], [-11.460975, 12.658402], [-11.461905, 12.673129], [-11.455756, 12.680622], [-11.447953, 12.685945], [-11.437359, 12.712248], [-11.424182, 12.716383], [-11.410332, 12.718811], [-11.402168, 12.73173], [-11.404028, 12.741213], [-11.41457, 12.759713], [-11.41457, 12.764209], [-11.407594, 12.77147], [-11.405423, 12.782348], [-11.406353, 12.794285], [-11.408472, 12.804491], [-11.411676, 12.812888], [-11.416017, 12.820071], [-11.419686, 12.824671], [-11.420978, 12.825575], [-11.423458, 12.826402], [-11.428161, 12.827022], [-11.432088, 12.829347], [-11.432502, 12.835523], [-11.430021, 12.841052], [-11.427024, 12.845238], [-11.425474, 12.849553], [-11.428626, 12.865805], [-11.424905, 12.876166], [-11.419324, 12.886501], [-11.415138, 12.896656], [-11.417309, 12.901953], [-11.423096, 12.907069], [-11.427954, 12.912495], [-11.427231, 12.918618], [-11.420668, 12.922029], [-11.413588, 12.919703], [-11.407283, 12.916293], [-11.402891, 12.916396], [-11.394209, 12.923321], [-11.387801, 12.927119], [-11.384443, 12.933114], [-11.386561, 12.959107], [-11.388835, 12.970553], [-11.393434, 12.980811], [-11.401806, 12.989492], [-11.404235, 12.972103], [-11.411521, 12.960709], [-11.423096, 12.956006], [-11.438703, 12.9589], [-11.435964, 12.968848], [-11.433535, 12.988356], [-11.433432, 12.99696], [-11.430124, 13.00099], [-11.424543, 13.005202], [-11.422993, 13.009414], [-11.431675, 13.01347], [-11.435654, 13.016726], [-11.43953, 13.023005], [-11.445162, 13.035226], [-11.45896, 13.054682], [-11.456945, 13.060444], [-11.451415, 13.068067], [-11.450278, 13.075095], [-11.46082, 13.079177], [-11.477098, 13.083285], [-11.489707, 13.090778], [-11.501541, 13.099589], [-11.515391, 13.107754], [-11.533064, 13.111811], [-11.538077, 13.128011], [-11.538542, 13.16297], [-11.547843, 13.176199], [-11.559729, 13.186922], [-11.569341, 13.199195], [-11.572338, 13.217101], [-11.568566, 13.227902], [-11.555802, 13.245911], [-11.554251, 13.256866], [-11.55854, 13.266504], [-11.581175, 13.286141], [-11.605824, 13.319653], [-11.613007, 13.339058], [-11.613111, 13.360813], [-11.620345, 13.357532], [-11.632903, 13.35438], [-11.643962, 13.355594], [-11.646597, 13.365516], [-11.645253, 13.379753], [-11.649801, 13.38412], [-11.674967, 13.383215], [-11.694501, 13.379184], [-11.70401, 13.380373], [-11.714035, 13.388099], [-11.719771, 13.397891], [-11.726902, 13.405798], [-11.741217, 13.407813], [-11.756513, 13.399803], [-11.76659, 13.383164], [-11.772533, 13.362674], [-11.775116, 13.343347], [-11.817078, 13.312341], [-11.822555, 13.306708], [-11.828136, 13.307277], [-11.840022, 13.316889], [-11.844569, 13.323839], [-11.850771, 13.34314], [-11.854595, 13.350556], [-11.862346, 13.356085], [-11.888804, 13.368875], [-11.897589, 13.371175], [-11.899967, 13.382182], [-11.885652, 13.43577], [-11.883482, 13.453547], [-11.890406, 13.465148], [-11.898468, 13.468507], [-11.907718, 13.469644], [-11.918157, 13.474708], [-11.923841, 13.481142], [-11.932729, 13.496051], [-11.939034, 13.50295], [-11.996808, 13.544161], [-12.015153, 13.564444], [-12.037323, 13.598267], [-12.049828, 13.634363], [-12.070395, 13.673249], [-12.083883, 13.692964], [-12.097629, 13.70441], [-12.012311, 13.751177], [-11.978825, 13.784819], [-11.962908, 13.829467], [-11.956966, 13.870007], [-11.956811, 13.890342], [-11.962908, 13.909152], [-11.980375, 13.929642], [-11.99903, 13.943569], [-12.015308, 13.959304], [-12.025334, 13.985246], [-12.02523, 14.026742], [-12.002751, 14.103456], [-11.995413, 14.144022], [-11.997583, 14.166165], [-12.03448, 14.250268], [-12.044299, 14.264919], [-12.058355, 14.274091], [-12.097784, 14.28807], [-12.10998, 14.298146], [-12.119591, 14.310575], [-12.127808, 14.324295], [-12.113029, 14.329592], [-12.108688, 14.34202], [-12.115612, 14.35512], [-12.208837, 14.388761], [-12.22173, 14.391242], [-12.21987, 14.434598], [-12.222428, 14.454933], [-12.234184, 14.498574], [-12.236432, 14.519451], [-12.230386, 14.536685], [-12.211472, 14.547976], [-12.204186, 14.554255], [-12.201447, 14.565184], [-12.200465, 14.577354], [-12.198398, 14.58756], [-12.191008, 14.597999], [-12.171526, 14.616422], [-12.165945, 14.625181], [-12.165015, 14.641872], [-12.172611, 14.647918], [-12.182792, 14.650244], [-12.18982, 14.655954], [-12.192197, 14.666884], [-12.190285, 14.673653], [-12.185841, 14.68081], [-12.180311, 14.692825], [-12.191422, 14.693445], [-12.207648, 14.696598], [-12.222815, 14.70329], [-12.230489, 14.714555], [-12.236613, 14.728456], [-12.256508, 14.745794], [-12.26413, 14.774939], [-12.246793, 14.767007], [-12.224779, 14.763441], [-12.203256, 14.76618], [-12.160209, 14.781011], [-12.138867, 14.784525], [-12.123674, 14.776644], [-12.081454, 14.740032], [-12.070395, 14.734399], [-12.062334, 14.746259], [-12.057063, 14.761942], [-12.049673, 14.767213], [-12.03107, 14.762821], [-12.011071, 14.762743], [-11.991486, 14.76804], [-11.973967, 14.779848], [-11.950299, 14.811552], [-11.935985, 14.823618], [-11.895729, 14.832067], [-11.877487, 14.841524], [-11.862605, 14.854082], [-11.854698, 14.867311], [-11.850822, 14.876483], [-11.845603, 14.883227], [-11.840487, 14.888498], [-11.837076, 14.893097], [-11.833097, 14.894699], [-11.826069, 14.89656], [-11.820385, 14.89997], [-11.820437, 14.906404], [-11.827361, 14.915576], [-11.8301, 14.920331], [-11.830927, 14.926429], [-11.825811, 14.962473], [-11.820592, 14.980275], [-11.813202, 14.995933], [-11.813202, 14.996088], [-11.811083, 15.014304], [-11.81377, 15.028541], [-11.82116, 15.039755], [-11.832839, 15.049005], [-11.839195, 15.049005], [-11.844466, 15.044328], [-11.851029, 15.041951], [-11.860899, 15.049005], [-11.859142, 15.054069], [-11.856765, 15.084248], [-11.845138, 15.124556], [-11.844208, 15.13484], [-11.847308, 15.148741], [-11.848187, 15.158146], [-11.845655, 15.179075], [-11.826793, 15.23256], [-11.821057, 15.280102], [-11.816923, 15.296096], [-11.783488, 15.365885], [-11.767675, 15.437198], [-11.754859, 15.469083], [-11.729434, 15.496058], [-11.727057, 15.506987], [-11.727057, 15.541171], [-11.70174, 15.537425], [-11.69755, 15.536805], [-11.670833, 15.528407], [-11.644117, 15.526444], [-11.614868, 15.541171], [-11.579211, 15.577965], [-11.562571, 15.587241], [-11.535958, 15.594915], [-11.524279, 15.600289], [-11.515391, 15.610082], [-11.513117, 15.615043], [-11.512342, 15.620185], [-11.513117, 15.625275], [-11.515391, 15.630262], [-11.519576, 15.632742], [-11.522987, 15.635248], [-11.525623, 15.638349], [-11.527328, 15.642561], [-11.524382, 15.643465], [-11.515391, 15.644421], [-11.458236, 15.632949], [-11.434827, 15.623389], [-11.409557, 15.602201], [-11.316901, 15.471667], [-11.298195, 15.451048], [-11.045393, 15.270206], [-11.012734, 15.239588], [-10.98519, 15.187498], [-10.948035, 15.151996], [-10.915169, 15.102904], [-10.906229, 15.119776], [-10.890881, 15.176749], [-10.882251, 15.192846], [-10.855328, 15.217651], [-10.844062, 15.234549], [-10.834399, 15.271395], [-10.827216, 15.287698], [-10.811041, 15.303124], [-10.800189, 15.306845], [-10.790112, 15.306845], [-10.78174, 15.308421], [-10.770682, 15.324673], [-10.754507, 15.333639], [-10.746807, 15.341132], [-10.738901, 15.362164], [-10.740141, 15.403583], [-10.736368, 15.422626], [-10.725361, 15.433064], [-10.709187, 15.433865], [-10.64888, 15.424874], [-10.607126, 15.424434], [-10.587385, 15.427251], [-10.584746, 15.428127], [-10.551522, 15.439162], [-10.534985, 15.441694], [-10.515503, 15.437741], [-10.500414, 15.440351], [-10.398405, 15.438697], [-10.370758, 15.433504], [-10.322647, 15.437095], [-10.308746, 15.435209], [-10.223221, 15.402033], [-10.214488, 15.401981], [-10.196091, 15.405288], [-10.188391, 15.40472], [-10.167979, 15.395185], [-10.131599, 15.372629], [-10.108293, 15.365885], [-10.067624, 15.364748], [-9.951403, 15.381207], [-9.835596, 15.371104], [-9.797356, 15.380303], [-9.740719, 15.4126], [-9.720823, 15.42092], [-9.672118, 15.430661], [-9.42389, 15.440532], [-9.435879, 15.495954], [-9.451847, 15.559206], [-9.451692, 15.588326], [-9.437016, 15.614888], [-9.375935, 15.685917], [-9.356453, 15.697854], [-9.332423, 15.687571], [-9.329322, 15.655247], [-9.342965, 15.586931], [-9.349218, 15.495644], [-9.175843, 15.495593], [-9.141379, 15.495581], [-9.018592, 15.495541], [-9.003216, 15.495526], [-8.911157, 15.495438], [-8.843409, 15.495438], [-8.769253, 15.495438], [-8.68931, 15.495438], [-8.60394, 15.495386], [-8.470202, 15.495283], [-8.327006, 15.495283], [-8.175801, 15.495205], [-8.017826, 15.495128], [-7.854529, 15.495076], [-7.6872, 15.495024], [-7.517237, 15.494973], [-7.345878, 15.494921], [-7.174519, 15.494818], [-7.004503, 15.494818], [-6.837175, 15.49474], [-6.673929, 15.494663], [-6.516006, 15.494611], [-6.364749, 15.494559], [-6.320145, 15.494543], [-6.221605, 15.494508], [-6.087815, 15.494456], [-6.010817, 15.494378], [-5.938212, 15.494353], [-5.870257, 15.494353], [-5.807315, 15.494353], [-5.673163, 15.494301], [-5.515964, 15.494249], [-5.515602, 15.494146], [-5.515292, 15.494042], [-5.514982, 15.493913], [-5.514672, 15.493836], [-5.514362, 15.493732], [-5.514051, 15.493629], [-5.513741, 15.493526], [-5.51338, 15.493422], [-5.513121, 15.493422], [-5.512966, 15.493422], [-5.51276, 15.493422], [-5.512553, 15.493422], [-5.512294, 15.493422], [-5.512191, 15.493422], [-5.511933, 15.493422], [-5.511726, 15.493422], [-5.511623, 15.493526], [-5.511519, 15.493681], [-5.511364, 15.493732], [-5.511313, 15.493887], [-5.511261, 15.493991], [-5.511106, 15.494042], [-5.510951, 15.494197], [-5.510951, 15.494301], [-5.510951, 15.494508], [-5.510951, 15.494663], [-5.510951, 15.494818], [-5.510951, 15.495076], [-5.510951, 15.495283], [-5.510951, 15.495438], [-5.510951, 15.49567], [-5.510951, 15.495903], [-5.509917, 15.500812], [-5.508987, 15.505695], [-5.508761, 15.5069], [-5.508057, 15.510656], [-5.507075, 15.51554], [-5.488368, 15.612666], [-5.469558, 15.709792], [-5.4508, 15.80684], [-5.431989, 15.90394], [-5.413799, 15.998559], [-5.395454, 16.093179], [-5.377212, 16.187799], [-5.358919, 16.282366], [-5.353286, 16.311977], [-5.354268, 16.318385], [-5.355301, 16.324793], [-5.360107, 16.329909], [-5.364913, 16.334921], [-5.404963, 16.36169], [-5.445942, 16.389027], [-5.485371, 16.415433], [-5.529709, 16.444992], [-5.566503, 16.469487], [-5.60588, 16.495893], [-5.614562, 16.511861], [-5.623347, 16.527829], [-5.627688, 16.568137], [-5.63761, 16.658364], [-5.647583, 16.748643], [-5.657454, 16.838818], [-5.667324, 16.929097], [-5.677297, 17.019324], [-5.687168, 17.109499], [-5.697038, 17.199726], [-5.70696, 17.289954], [-5.716933, 17.380181], [-5.726803, 17.470356], [-5.736674, 17.560583], [-5.746647, 17.650758], [-5.756466, 17.741037], [-5.766387, 17.831264], [-5.776361, 17.92144], [-5.78618, 18.011667], [-5.79636, 18.104374], [-5.80654, 18.197082], [-5.816772, 18.289892], [-5.826952, 18.382548], [-5.837081, 18.475333], [-5.847364, 18.568067], [-5.857545, 18.6608], [-5.867673, 18.753585], [-5.877802, 18.846318], [-5.888034, 18.939052], [-5.894724721102521, 19.0], [-5.898214, 19.031785], [-5.908394, 19.12457], [-5.914802, 19.182887], [-5.92121, 19.24123], [-5.927566, 19.299547], [-5.934026, 19.357941], [-5.949115, 19.495529], [-5.949115, 19.495633], [-5.963533, 19.620612], [-5.977847, 19.745618], [-5.992162, 19.870597], [-6.00658, 19.995525], [-6.020946, 20.12053], [-6.035363, 20.245484], [-6.049678, 20.370489], [-6.064095, 20.495443], [-6.076756, 20.603343], [-6.083577, 20.661892], [-6.098615, 20.790722], [-6.113705, 20.919551], [-6.120526, 20.978204], [-6.134634, 21.098868], [-6.148741, 21.219533], [-6.162901, 21.340197], [-6.177008, 21.460862], [-6.191116, 21.581578], [-6.205224, 21.702242], [-6.219383, 21.822855], [-6.233491, 21.943571], [-6.247598, 22.064236], [-6.261706, 22.184952], [-6.275865, 22.305616], [-6.289973, 22.426281], [-6.304132, 22.546997], [-6.318188, 22.667661], [-6.332296, 22.7883], [-6.346455, 22.908965], [-6.360563, 23.029655], [-6.371634, 23.123981], [-6.374722, 23.150293], [-6.388778, 23.270958], [-6.402938, 23.391674], [-6.417045, 23.512339], [-6.431205, 23.633029], [-6.445312, 23.753719], [-6.45942, 23.874409], [-6.466603, 23.93624], [-6.482571, 24.072304], [-6.498436, 24.208368], [-6.5, 24.221750954526605], [-6.505671, 24.270277], [-6.506338, 24.275967], [-6.515851, 24.357067], [-6.525514, 24.436727], [-6.535178, 24.51636], [-6.54479, 24.595993], [-6.554453, 24.675549], [-6.564168, 24.755234], [-6.57378, 24.834868], [-6.583392, 24.914424], [-6.593107, 24.994134], [-6.371674, 24.994238], [-6.150188, 24.994341], [-5.928755, 24.994444], [-5.707321, 24.9946], [-5.485939, 24.994703], [-5.264454, 24.994806], [-5.043072, 24.99491], [-4.821613, 24.995065], [-4.821536, 24.994961], [-4.821355, 24.994806], [-4.821226, 24.994755], [-4.744925, 24.947057], [-4.668677, 24.899334], [-4.592351, 24.851688], [-4.516025, 24.803991], [-4.404946, 24.731308], [-4.325235, 24.679218], [-4.245498, 24.627077], [-4.165865, 24.574987], [-4.086154, 24.522897], [-4.006495, 24.470807], [-3.926732, 24.418717], [-3.846996, 24.366576], [-3.767336, 24.314434], [-3.687625, 24.262344], [-3.608018, 24.210203], [-3.528281, 24.158113], [-3.448544, 24.106023], [-3.368808, 24.053959], [-3.289123, 24.001844], [-3.209489, 23.949702], [-3.129649, 23.897612], [-3.043065, 23.840923], [-2.956404, 23.784234], [-2.869768, 23.727623], [-2.783107, 23.670985], [-2.696446, 23.614348], [-2.609836, 23.557685], [-2.523226, 23.500996], [-2.436513, 23.444358], [-2.349852, 23.387747], [-2.26319, 23.331109], [-2.176632, 23.274446], [-2.089919, 23.217757], [-2.00331, 23.161042], [-1.916648, 23.104456], [-1.830039, 23.047819], [-1.743326, 22.991182], [-1.656716, 22.93457], [-1.570054, 22.877881], [-1.483496, 22.821166], [-1.396783, 22.764555], [-1.310122, 22.707969], [-1.223512, 22.65128], [-1.136903, 22.594643], [-1.05019, 22.537954], [-0.96358, 22.481265], [-0.876918, 22.424627], [-0.790309, 22.368041], [-0.703647, 22.311404], [-0.616934, 22.254767], [-0.530325, 22.198078], [-0.443663, 22.141389], [-0.357028, 22.084751], [-0.270392, 22.028114], [-0.183731, 21.971477], [-0.097044, 21.914839], [-0.010408, 21.85815], [0.003735, 21.848899], [0.076253, 21.801461], [0.162966, 21.744824], [0.249499, 21.688238], [0.33616, 21.631601], [0.422795, 21.574963], [0.509457, 21.518274], [0.596067, 21.461585], [0.682676, 21.404896], [0.769389, 21.34831], [0.855999, 21.291673], [0.942609, 21.235036], [1.029322, 21.178347], [1.146524, 21.101711], [1.15934, 21.081505], [1.177943, 21.017323], [1.180114, 20.995309], [1.167505, 20.886013], [1.145284, 20.795889], [1.14456, 20.776252], [1.147247, 20.751448], [1.154585, 20.738787], [1.168538, 20.733464], [1.191276, 20.73057], [1.212463, 20.73088], [1.252254, 20.738994], [1.273338, 20.739407], [1.296696, 20.733464], [1.310545, 20.722716], [1.331526, 20.687937], [1.346925, 20.669127], [1.363978, 20.657707], [1.40718, 20.645046], [1.447487, 20.638741], [1.465781, 20.633522], [1.483454, 20.622618], [1.520351, 20.616986], [1.559729, 20.597504], [1.623704, 20.551253], [1.643961, 20.522676], [1.650059, 20.487019], [1.649232, 20.412089], [1.659154, 20.397516], [1.778113, 20.304291], [1.799197, 20.294886], [1.820901, 20.293594], [1.838885, 20.29592], [1.855008, 20.294835], [1.870614, 20.283543], [1.880329, 20.263054], [1.883843, 20.24414], [1.891388, 20.231789], [1.913402, 20.231092], [1.924254, 20.23613], [1.941204, 20.251116], [1.95526, 20.254915], [1.967146, 20.253416], [1.975621, 20.248429], [1.983372, 20.241918], [1.993397, 20.235949], [2.056339, 20.215046], [2.071222, 20.213263], [2.097474, 20.224193], [2.138195, 20.260728], [2.161346, 20.274939], [2.18243, 20.278505], [2.200826, 20.273906], [2.21819, 20.264087], [2.279581, 20.21794], [2.316478, 20.180165], [2.348208, 20.137635], [2.388722, 20.067407], [2.400401, 20.056555], [2.415697, 20.051284], [2.439882, 20.04609], [2.459312, 20.038778], [2.495382, 20.020097], [2.514812, 20.015937], [2.525665, 20.015162], [2.616925, 19.998367], [2.671805, 19.996222], [2.946001, 19.941652], [3.072608, 19.88889], [3.130485, 19.845224], [3.147022, 19.837938], [3.183195, 19.827731], [3.198802, 19.820523], [3.212754, 19.807758], [3.216785, 19.794064], [3.198285, 19.592397], [3.199422, 19.553769], [3.212238, 19.517156], [3.217509, 19.511162], [3.222883, 19.508061], [3.228051, 19.504159], [3.232288, 19.495478], [3.231668, 19.489044], [3.22619, 19.4692], [3.225984, 19.459692], [3.234769, 19.441347], [3.247481, 19.426464], [3.25823, 19.410393], [3.260813, 19.388327], [3.250995, 19.36546], [3.232701, 19.351843], [3.211514, 19.340862], [3.192911, 19.325798], [3.183816, 19.307505], [3.178855, 19.268722], [3.17441, 19.251643], [3.152706, 19.230197], [3.13927, 19.221929], [3.134206, 19.212859], [3.126558, 19.193352], [3.111779, 19.171337], [3.102684, 19.153561], [3.10413, 19.135526], [3.120874, 19.112814], [3.138754, 19.096045], [3.158597, 19.08155], [3.179785, 19.07], [3.225984, 19.05106], [3.284895, 18.995741], [3.308356, 18.981685], [3.318381, 18.977706], [3.333057, 18.975561], [3.358689, 18.976853], [3.439717, 18.995638], [3.439821, 18.995638], [3.54462, 19.015068], [3.715566, 19.046901], [3.790291, 19.06077], [3.886512, 19.07863], [4.057561, 19.110437], [4.22861, 19.142244], [4.229023, 19.018582], [4.229436, 18.894946], [4.22985, 18.771284], [4.230263, 18.647648], [4.230271, 18.645374], [4.230677, 18.524038], [4.23109, 18.400325], [4.231504, 18.276741], [4.231917, 18.153105], [4.232227, 18.029443], [4.232408, 17.975234], [4.23264, 17.905782], [4.233054, 17.78212], [4.233364, 17.658458], [4.233777, 17.534796], [4.233922534600761, 17.5], [4.234294, 17.411186], [4.234707, 17.287525], [4.235018, 17.163915], [4.235328, 17.100818], [4.235638, 16.995863], [4.222305, 16.986561], [4.21166, 16.986044], [4.203702, 16.982789], [4.197811, 16.965219], [4.19657, 16.947132], [4.202048, 16.848895], [4.197604, 16.838508], [4.184581, 16.818509], [4.181998, 16.809621], [4.182308, 16.746472], [4.183031, 16.612682], [4.183444, 16.526538], [4.183961, 16.416053], [4.1759, 16.392644], [4.16174, 16.379983], [4.118229, 16.358331], [4.094768, 16.340812], [4.075647, 16.321072], [4.060558, 16.298334], [3.971158, 16.086099], [3.96692, 16.058504], [3.970848, 16.030857], [3.98325, 16.00135], [3.983973, 16.00011], [3.98449, 15.998766], [3.984697, 15.997371], [3.984594, 15.995924], [3.9848, 15.989826], [3.98418, 15.986881], [3.98325, 15.983987], [3.925062, 15.927608], [3.909869, 15.904767], [3.903462, 15.886318], [3.89447, 15.78865], [3.886512, 15.750099], [3.873849, 15.720882], [3.871215, 15.714804], [3.846101, 15.685297], [3.808377, 15.665582], [3.728899, 15.65088], [3.692208, 15.63145], [3.614074, 15.547734], [3.526534, 15.495954], [3.516508, 15.469186], [3.507103, 15.353973], [3.48881, 15.357539], [3.483332, 15.359296], [3.380393, 15.376324], [3.19229, 15.40751], [3.073021, 15.427199], [3.03354, 15.42645], [3.017521, 15.422832], [3.010286, 15.417665], [3.007806, 15.407665], [3.005842, 15.389294], [3.005739, 15.35232], [3.000158, 15.339117], [2.950651, 15.337463], [2.85412, 15.334207], [2.757485, 15.331081], [2.660953, 15.327825], [2.564215, 15.324595], [2.467684, 15.321417], [2.371049, 15.318239], [2.274517, 15.314984], [2.177882, 15.311831], [2.081351, 15.308576], [1.984612, 15.305398], [1.888081, 15.302194], [1.791446, 15.29899], [1.694914, 15.295734], [1.598383, 15.292608], [1.501748, 15.289352], [1.405216, 15.286148], [1.331526, 15.283616], [1.297832, 15.275735], [1.270857, 15.259897], [1.203161, 15.198789], [1.123063, 15.126313], [1.057537, 15.067118], [0.973718, 14.991257], [0.949327, 14.979552], [0.922145, 14.973971], [0.769183, 14.969062], [0.739934, 14.958339], [0.711408, 14.947461], [0.683813, 14.940872], [0.670067, 14.939735], [0.514831, 14.993556], [0.483515, 14.992109], [0.418791, 14.969888], [0.387035, 14.963248], [0.353187, 14.963429], [0.221257, 14.995933], [0.213196, 14.985417], [0.212782, 14.960716], [0.218467, 14.910977], [-0.033197, 14.995933], [-0.033404, 14.995933], [-0.166988, 15.049677], [-0.236699, 15.065619], [-0.299176, 15.054741], [-0.361472, 15.017741], [-0.397671, 15.002135], [-0.425732, 15.0026], [-0.435602, 15.015157], [-0.458649, 15.075463], [-0.4679, 15.079908], [-0.500343, 15.079721], [-0.719719, 15.078461], [-0.752895, 15.069727], [-0.771272, 15.056619], [-0.782816, 15.048385], [-0.836249, 14.996088], [-0.836404, 14.995985], [-1.043138, 14.818062], [-1.043317, 14.817908], [-1.07856, 14.796359], [-1.116697, 14.780443], [-1.307745, 14.734657], [-1.350275, 14.714969], [-1.69692, 14.496119], [-1.766683, 14.483174], [-1.836963, 14.479582], [-1.919129, 14.485861], [-1.967033, 14.483742], [-1.997057, 14.470694], [-2.005015, 14.444236], [-2.023412, 14.198643], [-2.027288, 14.188127], [-2.035918, 14.181229], [-2.085008, 14.159668], [-2.104337, 14.151179], [-2.11984, 14.148776], [-2.151879, 14.15614], [-2.385612, 14.264712], [-2.46168, 14.280912], [-2.516147, 14.267864], [-2.597382, 14.222311], [-2.619758, 14.203604], [-2.676265, 14.141729], [-2.69319, 14.123196], [-2.840855, 14.042994], [-2.867288, 14.000542], [-2.861552, 14.00173], [-2.858606, 14.000232], [-2.85703, 13.997777], [-2.855377, 13.996175], [-2.89447, 13.866571], [-2.912169, 13.837942], [-2.928059, 13.799624], [-2.923383, 13.746035], [-2.895245, 13.651648], [-2.930473, 13.638523], [-2.965008, 13.625655], [-2.97232, 13.624467], [-2.979322, 13.627567], [-2.986402, 13.632063], [-2.994774, 13.634983], [-3.019113, 13.637515], [-3.026968, 13.635345], [-3.038621, 13.629583], [-3.05601, 13.61085], [-3.067508, 13.606767], [-3.07451, 13.622141], [-3.077301, 13.636791], [-3.08221, 13.646222], [-3.100039, 13.662733], [-3.125102, 13.67728], [-3.146031, 13.67666], [-3.167941, 13.672112], [-3.195821, 13.674903], [-3.240418, 13.707976], [-3.267057, 13.717045], [-3.286952, 13.69777], [-3.266282, 13.682344], [-3.259719, 13.658315], [-3.263905, 13.602659], [-3.269176, 13.579095], [-3.283955, 13.542198], [-3.248634, 13.292781], [-3.262406, 13.283919], [-3.42653, 13.27423], [-3.448544, 13.265781], [-3.452265, 13.237514], [-3.440586, 13.202839], [-3.439475, 13.184855], [-3.449475, 13.16881], [-3.461593, 13.165761], [-3.473922, 13.167601], [-3.516111, 13.1739], [-3.538487, 13.173409], [-3.54505, 13.174494], [-3.553913, 13.180256], [-3.569958, 13.196767], [-3.576599, 13.199299], [-3.589802, 13.197387], [-3.596882, 13.199402], [-3.678711, 13.26175], [-3.724419, 13.288828], [-3.798626, 13.347145], [-3.817101, 13.35469], [-3.85808, 13.365516], [-3.8926, 13.378926], [-3.908878, 13.381975], [-3.928825, 13.38027], [-3.948411, 13.380838], [-3.971613, 13.386755], [-3.984042, 13.39647], [-3.971613, 13.40833], [-3.963009, 13.413162], [-3.942726, 13.431946], [-3.934923, 13.434892], [-3.925544, 13.436313], [-3.918593, 13.440318], [-3.917973, 13.451066], [-3.923399, 13.453754], [-3.94748, 13.458198], [-3.956059, 13.46166], [-3.959288, 13.467939], [-3.964482, 13.487808], [-3.965468, 13.489217], [-3.970321, 13.496154], [-3.974094, 13.498945], [-3.977737, 13.499926], [-3.981251, 13.49897], [-3.984481, 13.496051], [-3.997968, 13.480522], [-3.992232, 13.476233], [-3.979468, 13.47538], [-3.971613, 13.469954], [-3.97691, 13.460627], [-3.990217, 13.449129], [-4.005358, 13.439517], [-4.016029, 13.43577], [-4.028199, 13.431533], [-4.043495, 13.414454], [-4.052539, 13.409002], [-4.079307, 13.402129], [-4.087549, 13.397995], [-4.104267, 13.382698], [-4.114654, 13.364534], [-4.131578, 13.323839], [-4.147106, 13.299603], [-4.16602, 13.278157], [-4.176872, 13.272369], [-4.186458, 13.272834], [-4.195837, 13.274695], [-4.205501, 13.272989], [-4.220668, 13.262835], [-4.23878, 13.246789], [-4.253508, 13.22909], [-4.258107, 13.21413], [-4.251209, 13.204751], [-4.230021, 13.193149], [-4.227773, 13.184442], [-4.234801, 13.175605], [-4.24617, 13.172479], [-4.310197, 13.175553], [-4.327044, 13.168551], [-4.339601, 13.135298], [-4.345906, 13.127133], [-4.351073, 13.118322], [-4.351073, 13.106075], [-4.345363, 13.097057], [-4.316398, 13.070857], [-4.289733, 13.01347], [-4.276918, 12.996236], [-4.24785, 12.971948], [-4.229324, 12.948952], [-4.221314, 12.921254], [-4.224647, 12.864513], [-4.211883, 12.819193], [-4.213278, 12.807178], [-4.23413, 12.74235], [-4.243974, 12.729922], [-4.245472, 12.728936], [-4.257642, 12.72093], [-4.276298, 12.714677], [-4.297227, 12.712145], [-4.310921, 12.716021], [-4.339446, 12.73279], [-4.36885, 12.738991], [-4.402026, 12.736562], [-4.435254, 12.728423], [-4.464296, 12.717261], [-4.46437, 12.717251], [-4.474942, 12.715762], [-4.481711, 12.717416], [-4.485251, 12.714677]]]}}, {"type": "Feature", "properties": {"country": "NER", "name": "Niger"}, "geometry": {"type": "Polygon", "coordinates": [[[3.864394, 12.689666], [3.6457, 12.528539], [3.641565, 12.517997], [3.651487, 12.26902], [3.624512, 12.137658], [3.623995, 12.09425], [3.648903, 12.021024], [3.653554, 11.986815], [3.636604, 11.953587], [3.619551, 11.936275], [3.608492, 11.921961], [3.603945, 11.905579], [3.609733, 11.848787], [3.612937, 11.838968], [3.618621, 11.828375], [3.622032, 11.825016], [3.626269, 11.822535], [3.64973, 11.797834], [3.662029, 11.779489], [3.66699, 11.759697], [3.659859, 11.738096], [3.647767, 11.726004], [3.5964, 11.695773], [3.589372, 11.701509], [3.58007, 11.717374], [3.571699, 11.72187], [3.568185, 11.729518], [3.566221, 11.738354], [3.5625, 11.746003], [3.557436, 11.761815], [3.553715, 11.76967], [3.549271, 11.773753], [3.54369, 11.77706], [3.536972, 11.782899], [3.503486, 11.829977], [3.495424, 11.837521], [3.484262, 11.84517], [3.447675, 11.857985], [3.40282, 11.88527], [3.391658, 11.888836], [3.380909, 11.895037], [3.369127, 11.897311], [3.355071, 11.889043], [3.341635, 11.882893], [3.327786, 11.886407], [3.315487, 11.894572], [3.307012, 11.902375], [3.292749, 11.918653], [3.269908, 11.956532], [3.26257, 11.974722], [3.257609, 11.997408], [3.255129, 12.018751], [3.252028, 12.024125], [3.238489, 12.034202], [3.235389, 12.039525], [3.063409, 12.193779], [3.022895, 12.252483], [3.013077, 12.271087], [3.009356, 12.276306], [3.000984, 12.27889], [2.967808, 12.282559], [2.956026, 12.286848], [2.944967, 12.292481], [2.936802, 12.300852], [2.930394, 12.323332], [2.922643, 12.335631], [2.912618, 12.346328], [2.892257, 12.357076], [2.844301, 12.399244], [2.832416, 12.384051], [2.808645, 12.383225], [2.798413, 12.381209], [2.778156, 12.381933], [2.768544, 12.380072], [2.757485, 12.372941], [2.741465, 12.354131], [2.732267, 12.346793], [2.721828, 12.344261], [2.711286, 12.351237], [2.700434, 12.347103], [2.69506, 12.341212], [2.692166, 12.334029], [2.690202, 12.326174], [2.686895, 12.318422], [2.672942, 12.296718], [2.663847, 12.291551], [2.628604, 12.300801], [2.621679, 12.299509], [2.60969, 12.290775], [2.603593, 12.28783], [2.598632, 12.288347], [2.590053, 12.293308], [2.586126, 12.294031], [2.550573, 12.284523], [2.546025, 12.281629], [2.53693, 12.27305], [2.531246, 12.269691], [2.523701, 12.269175], [2.5206, 12.273671], [2.51905, 12.279148], [2.516259, 12.281422], [2.504477, 12.281835], [2.495072, 12.283231], [2.488044, 12.280388], [2.483393, 12.268038], [2.477709, 12.257599], [2.472644, 12.259253], [2.46696, 12.265041], [2.459519, 12.266746], [2.454351, 12.263025], [2.446083, 12.251811], [2.443706, 12.249228], [2.43089, 12.247987], [2.407946, 12.248918], [2.3942, 12.247212], [2.370015, 12.236257], [2.36123, 12.218894], [2.362057, 12.196156], [2.371875, 12.140449], [2.405568, 12.046708], [2.41115, 12.036786], [2.418281, 12.028673], [2.428616, 12.020353], [2.439262, 12.015598], [2.44877, 12.013376], [2.455281, 12.008674], [2.457348, 11.99622], [2.456728, 11.979063], [2.44939, 11.977513], [2.438951, 11.981285], [2.428926, 11.980355], [2.422002, 11.973172], [2.414147, 11.958703], [2.407429, 11.95121], [2.398747, 11.948781], [2.389342, 11.950073], [2.380867, 11.947902], [2.375183, 11.935035], [2.376526, 11.924079], [2.388205, 11.906768], [2.390169, 11.896536], [2.338079, 11.940099], [2.258807, 12.048775], [2.188527, 12.145461], [2.113803, 12.247987], [2.070912, 12.306898], [2.051792, 12.341935], [2.054169, 12.370926], [2.069258, 12.383328], [2.126929, 12.39511], [2.131477, 12.398521], [2.138711, 12.408339], [2.145016, 12.41175], [2.148013, 12.410768], [2.158762, 12.405652], [2.163826, 12.404774], [2.223254, 12.409735], [2.23793, 12.413455], [2.244958, 12.424152], [2.242994, 12.446166], [2.243098, 12.451179], [2.246302, 12.461669], [2.246302, 12.465907], [2.242271, 12.473452], [2.229559, 12.487146], [2.223874, 12.494846], [2.215709, 12.510349], [2.210852, 12.523061], [2.203204, 12.583316], [2.2, 12.595925], [2.193282, 12.609464], [2.18429, 12.620626], [2.165997, 12.631737], [2.155455, 12.640005], [2.144809, 12.650753], [2.140985, 12.656128], [2.135197, 12.67561], [2.109049, 12.705634], [2.068948, 12.716279], [1.971693, 12.724237], [1.962495, 12.719121], [1.945545, 12.700828], [1.934486, 12.693542], [1.926631, 12.694989], [1.919603, 12.698347], [1.911438, 12.696642], [1.906994, 12.691836], [1.900173, 12.678452], [1.883223, 12.653957], [1.872681, 12.634217], [1.860692, 12.61706], [1.843742, 12.606105], [1.826069, 12.604193], [1.699462, 12.61489], [1.597039, 12.623675], [1.563863, 12.63215], [1.535854, 12.647498], [1.467124, 12.704394], [1.412037, 12.749869], [1.330595, 12.817177], [1.304806, 12.838508], [1.230756, 12.899756], [1.170915, 12.949211], [1.113968, 12.996236], [1.083789, 13.01099], [1.012269, 13.016881], [0.983536, 13.032358], [0.974648, 13.048326], [0.971754, 13.067317], [0.971661, 13.085782], [0.971341, 13.149405], [0.970824, 13.243534], [0.970411, 13.328335], [0.983536, 13.36841], [1.004724, 13.364844], [1.084719, 13.33358], [1.138462, 13.320377], [1.160683, 13.311307], [1.167608, 13.313426], [1.177633, 13.34761], [1.182387, 13.358695], [1.187658, 13.364121], [1.205745, 13.358901], [1.222075, 13.344613], [1.241505, 13.335544], [1.268687, 13.34606], [1.249567, 13.367066], [1.23427, 13.377583], [1.217424, 13.381768], [1.175049, 13.38691], [1.157169, 13.392646], [1.048235, 13.441945], [1.015266, 13.465665], [0.996559, 13.496051], [0.991391, 13.541113], [0.95098, 13.583203], [0.896927, 13.614932], [0.850728, 13.628601], [0.813108, 13.625035], [0.795331, 13.625965], [0.775694, 13.635293], [0.763705, 13.646429], [0.762878, 13.653044], [0.766289, 13.657178], [0.767012, 13.660873], [0.766185, 13.666971], [0.766392, 13.67511], [0.763498, 13.682034], [0.75337, 13.684101], [0.620665, 13.679967], [0.59431, 13.688881], [0.58046, 13.713789], [0.584801, 13.729008], [0.594516, 13.74986], [0.600511, 13.768721], [0.593689, 13.778101], [0.574466, 13.785025], [0.5632, 13.796782], [0.552968, 13.810037], [0.519275, 13.831637], [0.504082, 13.845358], [0.499926, 13.851015], [0.49199, 13.861817], [0.483515, 13.880343], [0.47566, 13.888947], [0.454809, 13.902357], [0.448634, 13.909617], [0.448065, 13.920108], [0.456256, 13.938143], [0.456695, 13.94685], [0.445921, 13.958581], [0.428377, 13.967495], [0.411866, 13.978424], [0.403934, 13.996072], [0.401866, 14.013797], [0.391376, 14.022582], [0.378354, 14.028809], [0.369155, 14.039067], [0.369052, 14.047852], [0.37732, 14.063949], [0.378457, 14.070434], [0.37422, 14.078883], [0.368742, 14.084154], [0.362463, 14.088857], [0.356262, 14.095704], [0.343575, 14.114333], [0.339157, 14.12578], [0.343472, 14.137536], [0.367398, 14.173787], [0.372153, 14.185647], [0.377424, 14.216601], [0.381118, 14.22567], [0.390601, 14.237633], [0.391635, 14.245927], [0.388792, 14.251612], [0.346366, 14.307577], [0.202382, 14.435545], [0.18865, 14.44775], [0.158832, 14.496119], [0.152941, 14.54671], [0.219707, 14.731221], [0.213092, 14.761632], [0.184102, 14.819562], [0.185756, 14.84819], [0.198003, 14.863797], [0.211852, 14.874804], [0.220844, 14.888214], [0.218467, 14.910977], [0.212782, 14.960716], [0.213196, 14.985417], [0.221257, 14.995933], [0.353187, 14.963429], [0.387035, 14.963248], [0.418791, 14.969888], [0.483515, 14.992109], [0.514831, 14.993556], [0.670067, 14.939735], [0.683813, 14.940872], [0.711408, 14.947461], [0.739934, 14.958339], [0.769183, 14.969062], [0.922145, 14.973971], [0.949327, 14.979552], [0.973718, 14.991257], [1.057537, 15.067118], [1.123063, 15.126313], [1.203161, 15.198789], [1.270857, 15.259897], [1.297832, 15.275735], [1.331526, 15.283616], [1.405216, 15.286148], [1.501748, 15.289352], [1.598383, 15.292608], [1.694914, 15.295734], [1.791446, 15.29899], [1.888081, 15.302194], [1.984612, 15.305398], [2.081351, 15.308576], [2.177882, 15.311831], [2.274517, 15.314984], [2.371049, 15.318239], [2.467684, 15.321417], [2.564215, 15.324595], [2.660953, 15.327825], [2.757485, 15.331081], [2.85412, 15.334207], [2.950651, 15.337463], [3.000158, 15.339117], [3.005739, 15.35232], [3.005842, 15.389294], [3.007806, 15.407665], [3.010286, 15.417665], [3.017521, 15.422832], [3.03354, 15.42645], [3.073021, 15.427199], [3.19229, 15.40751], [3.380393, 15.376324], [3.483332, 15.359296], [3.48881, 15.357539], [3.507103, 15.353973], [3.516508, 15.469186], [3.526534, 15.495954], [3.614074, 15.547734], [3.692208, 15.63145], [3.728899, 15.65088], [3.808377, 15.665582], [3.846101, 15.685297], [3.871215, 15.714804], [3.873849, 15.720882], [3.886512, 15.750099], [3.89447, 15.78865], [3.903462, 15.886318], [3.909869, 15.904767], [3.925062, 15.927608], [3.98325, 15.983987], [3.98418, 15.986881], [3.9848, 15.989826], [3.984594, 15.995924], [3.984697, 15.997371], [3.98449, 15.998766], [3.983973, 16.00011], [3.98325, 16.00135], [3.970848, 16.030857], [3.96692, 16.058504], [3.971158, 16.086099], [4.060558, 16.298334], [4.075647, 16.321072], [4.094768, 16.340812], [4.118229, 16.358331], [4.16174, 16.379983], [4.1759, 16.392644], [4.183961, 16.416053], [4.183444, 16.526538], [4.183031, 16.612682], [4.182308, 16.746472], [4.181998, 16.809621], [4.184581, 16.818509], [4.197604, 16.838508], [4.202048, 16.848895], [4.19657, 16.947132], [4.197811, 16.965219], [4.203702, 16.982789], [4.21166, 16.986044], [4.222305, 16.986561], [4.235638, 16.995863], [4.235328, 17.100818], [4.235018, 17.163915], [4.234707, 17.287525], [4.234294, 17.411186], [4.233777, 17.534796], [4.233364, 17.658458], [4.233054, 17.78212], [4.23264, 17.905782], [4.232408, 17.975234], [4.232227, 18.029443], [4.231917, 18.153105], [4.231504, 18.276741], [4.23109, 18.400325], [4.230677, 18.524038], [4.230271, 18.645374], [4.230263, 18.647648], [4.22985, 18.771284], [4.229436, 18.894946], [4.229023, 19.018582], [4.22861, 19.142244], [4.417229, 19.178417], [4.605848, 19.214616], [4.794467, 19.250764], [4.983189, 19.286963], [5.082821, 19.306006], [5.301826, 19.347993], [5.520831, 19.389903], [5.620463, 19.408997], [5.749344, 19.433699], [5.794302, 19.449796], [5.837607, 19.478631], [5.916362, 19.546276], [5.979407, 19.600536], [6.042556, 19.654745], [6.105601, 19.709005], [6.168646, 19.763213], [6.231692, 19.817474], [6.294737, 19.871682], [6.357782, 19.925917], [6.420931, 19.980177], [6.483769, 20.034385], [6.546918, 20.088646], [6.609963, 20.142854], [6.672957, 20.197115], [6.736105, 20.251323], [6.799047, 20.305532], [6.862092, 20.35974], [6.925138, 20.414001], [6.982808, 20.46361], [7.020532, 20.495443], [7.098047, 20.558746], [7.169464, 20.616986], [7.240881, 20.675173], [7.312297, 20.733464], [7.383611, 20.791652], [7.482726, 20.872577], [7.613778, 20.94973], [7.681887, 20.989831], [7.74979, 21.029984], [7.8179, 21.070085], [7.886009, 21.110237], [7.953912, 21.15039], [8.022022, 21.190491], [8.090131, 21.230592], [8.158034, 21.270744], [8.226143, 21.310845], [8.294253, 21.350946], [8.362259, 21.391047], [8.430265, 21.431148], [8.498375, 21.4713], [8.566381, 21.51135], [8.634491, 21.551502], [8.702497, 21.591655], [8.770606, 21.631807], [8.838613, 21.671908], [8.906722, 21.712061], [8.974832, 21.75211], [9.042838, 21.792263], [9.110844, 21.832364], [9.178953, 21.872516], [9.24696, 21.912565], [9.314966, 21.952718], [9.383075, 21.992819], [9.451082, 22.03292], [9.519088, 22.073072], [9.587197, 22.113225], [9.655203, 22.153326], [9.723313, 22.193427], [9.791319, 22.233579], [9.859325, 22.27368], [9.927435, 22.313781], [9.995441, 22.353882], [10.063447, 22.394035], [10.131557, 22.434136], [10.199563, 22.474237], [10.267569, 22.514337], [10.335679, 22.554542], [10.403788, 22.594643], [10.471691, 22.634744], [10.539801, 22.674896], [10.607807, 22.714945], [10.675813, 22.755046], [10.743923, 22.795199], [10.812032, 22.835326], [10.880038, 22.875375], [10.948148, 22.915527], [11.016257, 22.955654], [11.084367, 22.995755], [11.15227, 23.035882], [11.220379, 23.07606], [11.288489, 23.116161], [11.356392, 23.156262], [11.424501, 23.196415], [11.492611, 23.236516], [11.560514, 23.276591], [11.628623, 23.316717], [11.696733, 23.356844], [11.764739, 23.396945], [11.832745, 23.437046], [11.900855, 23.477173], [11.968861, 23.517351], [12.057021, 23.497611], [12.145284, 23.477948], [12.233651, 23.458285], [12.321811, 23.438622], [12.409971, 23.418882], [12.498337, 23.399245], [12.586497, 23.379582], [12.674657, 23.359893], [12.763024, 23.340179], [12.851184, 23.32049], [12.939447, 23.300827], [13.027607, 23.281138], [13.115871, 23.261449], [13.204134, 23.241709], [13.292398, 23.222098], [13.380661, 23.202383], [13.482257, 23.179672], [13.599562, 23.119029], [13.655786, 23.072624], [13.780895, 22.969633], [13.906055, 22.866616], [14.031009, 22.763702], [14.156169, 22.660737], [14.201644, 22.62322], [14.216217, 22.616295], [14.23172, 22.617949], [14.294869, 22.649833], [14.466021, 22.736184], [14.63707, 22.822536], [14.808016, 22.908887], [14.979168, 22.995316], [14.979271, 22.995368], [14.979909, 22.995664], [14.991984, 22.933097], [15.003973, 22.87044], [15.015858, 22.807782], [15.02795, 22.745176], [15.039939, 22.682544], [15.051928, 22.619861], [15.064021, 22.557177], [15.075906, 22.494597], [15.087998, 22.431914], [15.099987, 22.369282], [15.11208, 22.306598], [15.124069, 22.243966], [15.136058, 22.181335], [15.14815, 22.118651], [15.156315, 22.076173], [15.16448, 22.033695], [15.172024, 21.993387], [15.172438, 21.973647], [15.173265, 21.921557], [15.174608, 21.847918], [15.176055, 21.763427], [15.177502, 21.678988], [15.178846, 21.605297], [15.179776, 21.553208], [15.180086, 21.533467], [15.180396, 21.507267], [15.18453, 21.491196], [15.20024, 21.476468], [15.247472, 21.453265], [15.266592, 21.440656], [15.301009, 21.40133], [15.32478, 21.366707], [15.34142, 21.342161], [15.358266, 21.317718], [15.375009, 21.293223], [15.391753, 21.268729], [15.408496, 21.244234], [15.425342, 21.219791], [15.441982, 21.195193], [15.458829, 21.17075], [15.475572, 21.146256], [15.492212, 21.121761], [15.509058, 21.097266], [15.525801, 21.072772], [15.542544, 21.048277], [15.559288, 21.023782], [15.576134, 20.999339], [15.592774, 20.974793], [15.60931, 20.95066], [15.569003, 20.928905], [15.544301, 20.890302], [15.536033, 20.844052], [15.544198, 20.79899], [15.556084, 20.773669], [15.570243, 20.751913], [15.588123, 20.732792], [15.669462, 20.671866], [15.697264, 20.642875], [15.755555, 20.582001], [15.813846, 20.521074], [15.872033, 20.460199], [15.930324, 20.399324], [15.953992, 20.374571], [15.968151, 20.352816], [15.970322, 20.336331], [15.962984, 20.319226], [15.94252, 20.283957], [15.902419, 20.214943], [15.862318, 20.145955], [15.822321, 20.076993], [15.782323, 20.00803], [15.767234, 19.982037], [15.736021, 19.903541], [15.732404, 19.861838], [15.728373, 19.816259], [15.724342, 19.770577], [15.720208, 19.724999], [15.716177, 19.679317], [15.712146, 19.633764], [15.708116, 19.588108], [15.704085, 19.542529], [15.700054, 19.496873], [15.696023, 19.451243], [15.692096, 19.405638], [15.687962, 19.360008], [15.683931, 19.314404], [15.6799, 19.268747], [15.67587, 19.223169], [15.671839, 19.177539], [15.667808, 19.131882], [15.663777, 19.086304], [15.659747, 19.040648], [15.655716, 18.995069], [15.651582, 18.949387], [15.647551, 18.903834], [15.64352, 18.858178], [15.639593, 18.8126], [15.635562, 18.766943], [15.631531, 18.721313], [15.6275, 18.675709], [15.62347, 18.630078], [15.619439, 18.584474], [15.615305, 18.538818], [15.611274, 18.493239], [15.607243, 18.447583], [15.603213, 18.402004], [15.599182, 18.356348], [15.595151, 18.310718], [15.59112, 18.265088], [15.587193, 18.219483], [15.583162, 18.173879], [15.579028, 18.128249], [15.574997, 18.082644], [15.570966, 18.03704], [15.567698, 18.000039], [15.566936, 17.991409], [15.562905, 17.945779], [15.558874, 17.900149], [15.554843, 17.85457], [15.550813, 17.808888], [15.546782, 17.76331], [15.542648, 17.717679], [15.538617, 17.672049], [15.53469, 17.626367], [15.530659, 17.580737], [15.526628, 17.535107], [15.522597, 17.489528], [15.518567, 17.443846], [15.514536, 17.398267], [15.510505, 17.352637], [15.506371, 17.307058], [15.50234, 17.261376], [15.498309, 17.215746], [15.494279, 17.170116], [15.490248, 17.124537], [15.486217, 17.078907], [15.48229, 17.033277], [15.478259, 16.987698], [15.474125, 16.942068], [15.471954, 16.916746], [15.468517, 16.90491], [15.465547, 16.89468], [15.452421, 16.876232], [15.418418, 16.840885], [15.3624, 16.782646], [15.30628, 16.7242], [15.250159, 16.665909], [15.194039, 16.607566], [15.137918, 16.549275], [15.081797, 16.490881], [15.02578, 16.432538], [14.969659, 16.374247], [14.913539, 16.315904], [14.857418, 16.257613], [14.801401, 16.199219], [14.745384, 16.140876], [14.689263, 16.082534], [14.633143, 16.024243], [14.576919, 15.965797], [14.520798, 15.907557], [14.482144, 15.86725], [14.423543, 15.806323], [14.368973, 15.749634], [14.340447, 15.710722], [14.310682, 15.669949], [14.280709, 15.629254], [14.250944, 15.588455], [14.221178, 15.547734], [14.191206, 15.507039], [14.16144, 15.466292], [14.131571, 15.425545], [14.101702, 15.384876], [14.071833, 15.344181], [14.042068, 15.303434], [14.012199, 15.262687], [13.98233, 15.221992], [13.952564, 15.181219], [13.922592, 15.140498], [13.892826, 15.0997], [13.862957, 15.059056], [13.833915, 15.019601], [13.808077, 14.965573], [13.775417, 14.897438], [13.760534, 14.866355], [13.75516, 14.847209], [13.75392, 14.825944], [13.75795, 14.805532], [13.772006, 14.762873], [13.773247, 14.742512], [13.764358, 14.719077], [13.749165, 14.711248], [13.730045, 14.709646], [13.709995, 14.705124], [13.700021, 14.697734], [13.668085, 14.662879], [13.648345, 14.649417], [13.644727, 14.644249], [13.646278, 14.639056], [13.657026, 14.629651], [13.660334, 14.623734], [13.666742, 14.585519], [13.665605, 14.56689], [13.657853, 14.548725], [13.624264, 14.521311], [13.608052, 14.518266], [13.584369, 14.513818], [13.543855, 14.510562], [13.507785, 14.495964], [13.482257, 14.483587], [13.449494, 14.439042], [13.449184, 14.380131], [13.468304, 14.310678], [13.482257, 14.259777], [13.492695, 14.213862], [13.499723, 14.181978], [13.506958, 14.150119], [13.514193, 14.118235], [13.521324, 14.086428], [13.528455, 14.054518], [13.53569, 14.022737], [13.542821, 13.990853], [13.549953, 13.958994], [13.557188, 13.927161], [13.564319, 13.895225], [13.57145, 13.863418], [13.578582, 13.831534], [13.585816, 13.799727], [13.592948, 13.767843], [13.600182, 13.735984], [13.607314, 13.7041], [13.35999, 13.714409], [13.35892, 13.714232], [13.329915, 13.709423], [13.320716, 13.702291], [13.321233, 13.685109], [13.30604, 13.674644], [13.266146, 13.638032], [13.259221, 13.628963], [13.253847, 13.618911], [13.253537, 13.614881], [13.258601, 13.607801], [13.260048, 13.602142], [13.257258, 13.594236], [13.25085, 13.592763], [13.243822, 13.593254], [13.239481, 13.591575], [13.230179, 13.577751], [13.232246, 13.572894], [13.246405, 13.571085], [13.228112, 13.548037], [13.203927, 13.539381], [13.176952, 13.534472], [13.150184, 13.522664], [13.153698, 13.5307], [13.155868, 13.540777], [13.153698, 13.548761], [13.143983, 13.550621], [13.138402, 13.546539], [13.13096, 13.529821], [13.123519, 13.522664], [13.123829, 13.533439], [13.123519, 13.536953], [13.107086, 13.531552], [13.088276, 13.530596], [13.07701, 13.534679], [13.082488, 13.544394], [13.082488, 13.550621], [13.054893, 13.548373], [13.029261, 13.539175], [12.939344, 13.495069], [12.911749, 13.489901], [12.883844, 13.495999], [12.87971, 13.479695], [12.870614, 13.478868], [12.857799, 13.484914], [12.842296, 13.489126], [12.842296, 13.481685], [12.850564, 13.479385], [12.857592, 13.475328], [12.863897, 13.469282], [12.870201, 13.461247], [12.857075, 13.450653], [12.829273, 13.420293], [12.82855, 13.417451], [12.829997, 13.409364], [12.829273, 13.406625], [12.826276, 13.406056], [12.817594, 13.407296], [12.815011, 13.406625], [12.81067, 13.404299], [12.797337, 13.399648], [12.794547, 13.396057], [12.798474, 13.384275], [12.804779, 13.376859], [12.805192, 13.372983], [12.791136, 13.371846], [12.788966, 13.375464], [12.783281, 13.382337], [12.77739, 13.386703], [12.7746, 13.382698], [12.773256, 13.382233], [12.766538, 13.365671], [12.740803, 13.33482], [12.72437, 13.322289], [12.701736, 13.31725], [12.690057, 13.311979], [12.683132, 13.288932], [12.674347, 13.283712], [12.659155, 13.286606], [12.649233, 13.293608], [12.640654, 13.302393], [12.630009, 13.310377], [12.628769, 13.294177], [12.626805, 13.28826], [12.62019, 13.281438], [12.613266, 13.276503], [12.606134, 13.27423], [12.602724, 13.279992], [12.597556, 13.276503], [12.561073, 13.242759], [12.558179, 13.226532], [12.545156, 13.208213], [12.538335, 13.193356], [12.554251, 13.187542], [12.547947, 13.165451], [12.542572, 13.15478], [12.534511, 13.145917], [12.526966, 13.143643], [12.504332, 13.139613], [12.499784, 13.135969], [12.491206, 13.082639], [12.486659, 13.070805], [12.472706, 13.064165], [12.456376, 13.067421], [12.437256, 13.074009], [12.414312, 13.077627], [12.386742, 13.07858], [12.351576, 13.079797], [12.335247, 13.084474], [12.325738, 13.078815], [12.3184, 13.083854], [12.310959, 13.092639], [12.301037, 13.098116], [12.291528, 13.096824], [12.285327, 13.092019], [12.280883, 13.086851], [12.277162, 13.084474], [12.269204, 13.085869], [12.267447, 13.089641], [12.267034, 13.095171], [12.26321, 13.101863], [12.251841, 13.108012], [12.201405, 13.125427], [12.184765, 13.122094], [12.163784, 13.107961], [12.149625, 13.105584], [12.116449, 13.102845], [12.057641, 13.116772], [12.038004, 13.126358], [11.991908, 13.162092], [11.852795, 13.245394], [11.742311, 13.289448], [11.440004, 13.364431], [10.953005, 13.361899], [10.771311, 13.382698], [10.674986, 13.375102], [10.647882, 13.369406], [10.161529, 13.267202], [10.119775, 13.250097], [9.930122, 13.145969], [9.912449, 13.1292], [9.908211, 13.118787], [9.904387, 13.094344], [9.899736, 13.084319], [9.891778, 13.076231], [9.887747, 13.075508], [9.882683, 13.076231], [9.872038, 13.072562], [9.852814, 13.060444], [9.819328, 13.029206], [9.647657, 12.830538], [9.640734, 12.822526], [9.629262, 12.812785], [9.61841, 12.805783], [9.611485, 12.802941], [9.590298, 12.80139], [9.377908, 12.825782], [9.359821, 12.824593], [9.306491, 12.809839], [9.269387, 12.809788], [8.977872, 12.843183], [8.942792, 12.847201], [8.679346, 12.923579], [8.642655, 12.944353], [8.625499, 12.964791], [8.596767, 13.011403], [8.577233, 13.032436], [8.533515, 13.06463], [8.50964, 13.075921], [8.482665, 13.081554], [8.47078, 13.081657], [8.445975, 13.078712], [8.434503, 13.075095], [8.423134, 13.069488], [8.419, 13.066697], [8.415176, 13.067059], [8.405151, 13.070857], [8.397813, 13.075405], [8.297974, 13.164624], [8.273066, 13.193873], [8.259836, 13.205216], [8.246728, 13.211292], [8.245677, 13.211779], [8.216015, 13.219608], [8.201442, 13.226377], [8.167646, 13.252371], [8.14005, 13.269114], [8.116589, 13.29105], [8.105117, 13.299654], [8.077522, 13.310016], [7.823997, 13.345285], [7.789684, 13.341977], [7.755578, 13.327146], [7.391982, 13.112534], [7.360667, 13.102638], [7.324803, 13.102845], [7.22052, 13.121577], [7.198196, 13.117392], [7.137424, 13.047241], [7.090089, 13.006391], [7.068695, 12.996081], [7.062921, 12.99514], [7.044924, 12.992206], [6.970509, 12.991844], [6.937127, 12.995409], [6.906637, 13.006856], [6.874185, 13.030498], [6.837908, 13.063493], [6.778687, 13.130285], [6.753879, 13.1749], [6.672543, 13.321178], [6.509297, 13.496051], [6.368944, 13.626275], [6.302178, 13.663844], [6.284208, 13.667656], [6.229831, 13.679192], [6.210608, 13.675265], [6.152833, 13.643561], [6.142395, 13.640822], [6.13578, 13.643664], [6.129476, 13.649065], [6.12038, 13.654077], [5.837349, 13.763748], [5.554317, 13.873418], [5.521761, 13.880291], [5.374069, 13.855254], [5.346268, 13.841559], [5.334795, 13.826702], [5.318052, 13.789935], [5.304203, 13.773941], [5.273507, 13.752521], [5.262035, 13.747741], [5.227618, 13.741333], [5.084371, 13.747534], [4.983189, 13.72968], [4.925105, 13.733091], [4.902367, 13.742987], [4.879836, 13.764019], [4.856892, 13.774096], [4.824852, 13.770737], [4.625845, 13.723151], [4.506732, 13.694669], [4.452575, 13.673766], [4.405756, 13.641236], [4.248453, 13.494139], [4.220548, 13.480625], [4.190472, 13.475018], [4.125774, 13.472977], [4.123707, 13.233586], [4.120325, 13.210608], [4.088773, 12.996236], [3.929093, 12.750386], [3.864394, 12.689666]]]}}, {"type": "Feature", "properties": {"country": "BFA", "name": "Burkina Faso"}, "geometry": {"type": "Polygon", "coordinates": [[[-5.111802, 10.223718], [-5.111802, 10.27865], [-5.119192, 10.293533], [-5.119882, 10.293983], [-5.135677, 10.304282], [-5.152058, 10.305625], [-5.159499, 10.292319], [-5.168439, 10.291337], [-5.217584, 10.31994], [-5.233552, 10.315676], [-5.279802, 10.32242], [-5.296649, 10.32304], [-5.304142, 10.318415], [-5.309206, 10.311491], [-5.315511, 10.305264], [-5.327086, 10.302576], [-5.338507, 10.302215], [-5.343778, 10.303093], [-5.34817, 10.305987], [-5.353338, 10.308261], [-5.357058, 10.304385], [-5.360831, 10.298752], [-5.365533, 10.295703], [-5.385739, 10.296479], [-5.402534, 10.300561], [-5.416228, 10.307537], [-5.426977, 10.316865], [-5.430077, 10.322937], [-5.433488, 10.331877], [-5.437829, 10.340016], [-5.443772, 10.34353], [-5.453022, 10.343943], [-5.459946, 10.345158], [-5.474157, 10.350325], [-5.475294, 10.367715], [-5.48749, 10.392933], [-5.505111, 10.415567], [-5.522578, 10.425489], [-5.5171, 10.439984], [-5.508987, 10.490937], [-5.505163, 10.499179], [-5.48165, 10.535327], [-5.468111, 10.58783], [-5.471057, 10.597365], [-5.47855, 10.604238], [-5.477413, 10.61956], [-5.470488, 10.635605], [-5.460566, 10.644571], [-5.475914, 10.650385], [-5.477154, 10.658808], [-5.482115, 10.675215], [-5.482632, 10.684233], [-5.473072, 10.737873], [-5.467956, 10.752678], [-5.461186, 10.760042], [-5.45297, 10.763969], [-5.446459, 10.768698], [-5.445012, 10.778568], [-5.445322, 10.786991], [-5.431421, 10.844688], [-5.43509, 10.856909], [-5.447027, 10.877993], [-5.465579, 10.947886], [-5.479118, 10.975533], [-5.501804, 10.97021], [-5.495603, 10.996203], [-5.505602, 11.047985], [-5.507334, 11.056949], [-5.504233, 11.072684], [-5.489764, 11.082115], [-5.390131, 11.094699], [-5.373026, 11.099763], [-5.356283, 11.106894], [-5.332512, 11.12157], [-5.322332, 11.135549], [-5.316182, 11.176322], [-5.306726, 11.199395], [-5.275255, 11.230711], [-5.262852, 11.251588], [-5.26094, 11.267737], [-5.267865, 11.37202], [-5.263472, 11.390184], [-5.248176, 11.403181], [-5.22642, 11.41349], [-5.218307, 11.422198], [-5.219186, 11.435143], [-5.224612, 11.45801], [-5.224663, 11.54077], [-5.233914, 11.575987], [-5.269467, 11.604099], [-5.280732, 11.605753], [-5.290964, 11.604461], [-5.299956, 11.606424], [-5.307604, 11.617638], [-5.307811, 11.629007], [-5.302281, 11.639859], [-5.294788, 11.650298], [-5.289259, 11.660426], [-5.280681, 11.699494], [-5.278562, 11.721456], [-5.279544, 11.739026], [-5.28714, 11.758922], [-5.298974, 11.772668], [-5.314787, 11.782486], [-5.334269, 11.790806], [-5.344656, 11.793907], [-5.353286, 11.794527], [-5.370649, 11.791064], [-5.374525, 11.79525], [-5.400415, 11.810185], [-5.405996, 11.812303], [-5.412197, 11.823569], [-5.412352, 11.82853], [-5.405944, 11.830442], [-5.392302, 11.832354], [-5.387909, 11.830804], [-5.37561, 11.822225], [-5.369874, 11.820158], [-5.364552, 11.82176], [-5.357058, 11.829615], [-5.353803, 11.831734], [-5.319025, 11.837418], [-5.314839, 11.83933], [-5.311066, 11.842896], [-5.306519, 11.846048], [-5.300163, 11.846358], [-5.293445, 11.843206], [-5.288019, 11.839123], [-5.282489, 11.836436], [-5.275151, 11.837418], [-5.268227, 11.843051], [-5.248228, 11.870439], [-5.209471, 11.901497], [-5.182909, 11.930901], [-5.167819, 11.943665], [-5.136994, 11.953122], [-5.103947, 11.972759], [-5.089323, 11.97927], [-5.073768, 11.98051], [-5.034313, 11.97927], [-5.016046, 11.981285], [-5.004703, 11.980665], [-4.994238, 11.983249], [-4.984523, 11.988572], [-4.975454, 11.996271], [-4.95375, 12.005108], [-4.932071, 12.003144], [-4.910677, 11.998132], [-4.889955, 11.997925], [-4.847245, 12.013066], [-4.826238, 12.012705], [-4.806808, 11.996271], [-4.789522, 12.001801], [-4.761281, 12.006607], [-4.746889, 12.015082], [-4.738983, 12.02521], [-4.732281, 12.037263], [-4.725133, 12.050118], [-4.714617, 12.059007], [-4.704023, 12.061487], [-4.683715, 12.059058], [-4.673586, 12.05973], [-4.653716, 12.069135], [-4.652737, 12.071627], [-4.648678, 12.081951], [-4.646663, 12.098022], [-4.636121, 12.117556], [-4.600309, 12.137555], [-4.570233, 12.138898], [-4.560466, 12.149492], [-4.585529, 12.197241], [-4.497421, 12.26871], [-4.493545, 12.272844], [-4.492253, 12.278838], [-4.49401, 12.290104], [-4.490496, 12.305762], [-4.490703, 12.313823], [-4.488171, 12.320696], [-4.47719, 12.327311], [-4.462488, 12.328189], [-4.452669, 12.320283], [-4.444814, 12.309431], [-4.435823, 12.301731], [-4.406135, 12.307467], [-4.415359, 12.350307], [-4.451636, 12.435314], [-4.443678, 12.459447], [-4.426624, 12.479653], [-4.407607, 12.497946], [-4.393448, 12.516446], [-4.386885, 12.530192], [-4.387247, 12.533965], [-4.392647, 12.537427], [-4.401406, 12.550398], [-4.42249, 12.597217], [-4.439078, 12.613288], [-4.482538, 12.646258], [-4.491323, 12.662794], [-4.485251, 12.714677], [-4.481711, 12.717416], [-4.474942, 12.715762], [-4.46437, 12.717251], [-4.464296, 12.717261], [-4.435254, 12.728423], [-4.402026, 12.736562], [-4.36885, 12.738991], [-4.339446, 12.73279], [-4.310921, 12.716021], [-4.297227, 12.712145], [-4.276298, 12.714677], [-4.257642, 12.72093], [-4.245472, 12.728936], [-4.243974, 12.729922], [-4.23413, 12.74235], [-4.213278, 12.807178], [-4.211883, 12.819193], [-4.224647, 12.864513], [-4.221314, 12.921254], [-4.229324, 12.948952], [-4.24785, 12.971948], [-4.276918, 12.996236], [-4.289733, 13.01347], [-4.316398, 13.070857], [-4.345363, 13.097057], [-4.351073, 13.106075], [-4.351073, 13.118322], [-4.345906, 13.127133], [-4.339601, 13.135298], [-4.327044, 13.168551], [-4.310197, 13.175553], [-4.24617, 13.172479], [-4.234801, 13.175605], [-4.227773, 13.184442], [-4.230021, 13.193149], [-4.251209, 13.204751], [-4.258107, 13.21413], [-4.253508, 13.22909], [-4.23878, 13.246789], [-4.220668, 13.262835], [-4.205501, 13.272989], [-4.195837, 13.274695], [-4.186458, 13.272834], [-4.176872, 13.272369], [-4.16602, 13.278157], [-4.147106, 13.299603], [-4.131578, 13.323839], [-4.114654, 13.364534], [-4.104267, 13.382698], [-4.087549, 13.397995], [-4.079307, 13.402129], [-4.052539, 13.409002], [-4.043495, 13.414454], [-4.028199, 13.431533], [-4.016029, 13.43577], [-4.005358, 13.439517], [-3.990217, 13.449129], [-3.97691, 13.460627], [-3.971613, 13.469954], [-3.979468, 13.47538], [-3.992232, 13.476233], [-3.997968, 13.480522], [-3.984481, 13.496051], [-3.981251, 13.49897], [-3.977737, 13.499926], [-3.974094, 13.498945], [-3.970321, 13.496154], [-3.965468, 13.489217], [-3.964482, 13.487808], [-3.959288, 13.467939], [-3.956059, 13.46166], [-3.94748, 13.458198], [-3.923399, 13.453754], [-3.917973, 13.451066], [-3.918593, 13.440318], [-3.925544, 13.436313], [-3.934923, 13.434892], [-3.942726, 13.431946], [-3.963009, 13.413162], [-3.971613, 13.40833], [-3.984042, 13.39647], [-3.971613, 13.386755], [-3.948411, 13.380838], [-3.928825, 13.38027], [-3.908878, 13.381975], [-3.8926, 13.378926], [-3.85808, 13.365516], [-3.817101, 13.35469], [-3.798626, 13.347145], [-3.724419, 13.288828], [-3.678711, 13.26175], [-3.596882, 13.199402], [-3.589802, 13.197387], [-3.576599, 13.199299], [-3.569958, 13.196767], [-3.553913, 13.180256], [-3.54505, 13.174494], [-3.538487, 13.173409], [-3.516111, 13.1739], [-3.473922, 13.167601], [-3.461593, 13.165761], [-3.449475, 13.16881], [-3.439475, 13.184855], [-3.440586, 13.202839], [-3.452265, 13.237514], [-3.448544, 13.265781], [-3.42653, 13.27423], [-3.262406, 13.283919], [-3.248634, 13.292781], [-3.283955, 13.542198], [-3.269176, 13.579095], [-3.263905, 13.602659], [-3.259719, 13.658315], [-3.266282, 13.682344], [-3.286952, 13.69777], [-3.267057, 13.717045], [-3.240418, 13.707976], [-3.195821, 13.674903], [-3.167941, 13.672112], [-3.146031, 13.67666], [-3.125102, 13.67728], [-3.100039, 13.662733], [-3.08221, 13.646222], [-3.077301, 13.636791], [-3.07451, 13.622141], [-3.067508, 13.606767], [-3.05601, 13.61085], [-3.038621, 13.629583], [-3.026968, 13.635345], [-3.019113, 13.637515], [-2.994774, 13.634983], [-2.986402, 13.632063], [-2.979322, 13.627567], [-2.97232, 13.624467], [-2.965008, 13.625655], [-2.930473, 13.638523], [-2.895245, 13.651648], [-2.923383, 13.746035], [-2.928059, 13.799624], [-2.912169, 13.837942], [-2.89447, 13.866571], [-2.855377, 13.996175], [-2.85703, 13.997777], [-2.858606, 14.000232], [-2.861552, 14.00173], [-2.867288, 14.000542], [-2.840855, 14.042994], [-2.69319, 14.123196], [-2.676265, 14.141729], [-2.619758, 14.203604], [-2.597382, 14.222311], [-2.516147, 14.267864], [-2.46168, 14.280912], [-2.385612, 14.264712], [-2.151879, 14.15614], [-2.11984, 14.148776], [-2.104337, 14.151179], [-2.085008, 14.159668], [-2.035918, 14.181229], [-2.027288, 14.188127], [-2.023412, 14.198643], [-2.005015, 14.444236], [-1.997057, 14.470694], [-1.967033, 14.483742], [-1.919129, 14.485861], [-1.836963, 14.479582], [-1.766683, 14.483174], [-1.69692, 14.496119], [-1.350275, 14.714969], [-1.307745, 14.734657], [-1.116697, 14.780443], [-1.07856, 14.796359], [-1.043317, 14.817908], [-1.043138, 14.818062], [-0.836404, 14.995985], [-0.836249, 14.996088], [-0.782816, 15.048385], [-0.771272, 15.056619], [-0.752895, 15.069727], [-0.719719, 15.078461], [-0.500343, 15.079721], [-0.4679, 15.079908], [-0.458649, 15.075463], [-0.435602, 15.015157], [-0.425732, 15.0026], [-0.397671, 15.002135], [-0.361472, 15.017741], [-0.299176, 15.054741], [-0.236699, 15.065619], [-0.166988, 15.049677], [-0.033404, 14.995933], [-0.033197, 14.995933], [0.218467, 14.910977], [0.220844, 14.888214], [0.211852, 14.874804], [0.198003, 14.863797], [0.185756, 14.84819], [0.184102, 14.819562], [0.213092, 14.761632], [0.219707, 14.731221], [0.152941, 14.54671], [0.158832, 14.496119], [0.18865, 14.44775], [0.202382, 14.435545], [0.346366, 14.307577], [0.388792, 14.251612], [0.391635, 14.245927], [0.390601, 14.237633], [0.381118, 14.22567], [0.377424, 14.216601], [0.372153, 14.185647], [0.367398, 14.173787], [0.343472, 14.137536], [0.339157, 14.12578], [0.343575, 14.114333], [0.356262, 14.095704], [0.362463, 14.088857], [0.368742, 14.084154], [0.37422, 14.078883], [0.378457, 14.070434], [0.37732, 14.063949], [0.369052, 14.047852], [0.369155, 14.039067], [0.378354, 14.028809], [0.391376, 14.022582], [0.401866, 14.013797], [0.403934, 13.996072], [0.411866, 13.978424], [0.428377, 13.967495], [0.445921, 13.958581], [0.456695, 13.94685], [0.456256, 13.938143], [0.448065, 13.920108], [0.448634, 13.909617], [0.454809, 13.902357], [0.47566, 13.888947], [0.483515, 13.880343], [0.49199, 13.861817], [0.499926, 13.851015], [0.504082, 13.845358], [0.519275, 13.831637], [0.552968, 13.810037], [0.5632, 13.796782], [0.574466, 13.785025], [0.593689, 13.778101], [0.600511, 13.768721], [0.594516, 13.74986], [0.584801, 13.729008], [0.58046, 13.713789], [0.59431, 13.688881], [0.620665, 13.679967], [0.75337, 13.684101], [0.763498, 13.682034], [0.766392, 13.67511], [0.766185, 13.666971], [0.767012, 13.660873], [0.766289, 13.657178], [0.762878, 13.653044], [0.763705, 13.646429], [0.775694, 13.635293], [0.795331, 13.625965], [0.813108, 13.625035], [0.850728, 13.628601], [0.896927, 13.614932], [0.95098, 13.583203], [0.991391, 13.541113], [0.996559, 13.496051], [1.015266, 13.465665], [1.048235, 13.441945], [1.157169, 13.392646], [1.175049, 13.38691], [1.217424, 13.381768], [1.23427, 13.377583], [1.249567, 13.367066], [1.268687, 13.34606], [1.241505, 13.335544], [1.222075, 13.344613], [1.205745, 13.358901], [1.187658, 13.364121], [1.182387, 13.358695], [1.177633, 13.34761], [1.167608, 13.313426], [1.160683, 13.311307], [1.138462, 13.320377], [1.084719, 13.33358], [1.004724, 13.364844], [0.983536, 13.36841], [0.970411, 13.328335], [0.970824, 13.243534], [0.971341, 13.149405], [0.971661, 13.085782], [0.971754, 13.067317], [0.974648, 13.048326], [0.983536, 13.032358], [1.012269, 13.016881], [1.083789, 13.01099], [1.113968, 12.996236], [1.170915, 12.949211], [1.230756, 12.899756], [1.304806, 12.838508], [1.330595, 12.817177], [1.412037, 12.749869], [1.467124, 12.704394], [1.535854, 12.647498], [1.563863, 12.63215], [1.597039, 12.623675], [1.699462, 12.61489], [1.826069, 12.604193], [1.843742, 12.606105], [1.860692, 12.61706], [1.872681, 12.634217], [1.883223, 12.653957], [1.900173, 12.678452], [1.906994, 12.691836], [1.911438, 12.696642], [1.919603, 12.698347], [1.926631, 12.694989], [1.934486, 12.693542], [1.945545, 12.700828], [1.962495, 12.719121], [1.971693, 12.724237], [2.068948, 12.716279], [2.109049, 12.705634], [2.135197, 12.67561], [2.140985, 12.656128], [2.144809, 12.650753], [2.155455, 12.640005], [2.165997, 12.631737], [2.18429, 12.620626], [2.193282, 12.609464], [2.2, 12.595925], [2.203204, 12.583316], [2.210852, 12.523061], [2.215709, 12.510349], [2.223874, 12.494846], [2.229559, 12.487146], [2.242271, 12.473452], [2.246302, 12.465907], [2.246302, 12.461669], [2.243098, 12.451179], [2.242994, 12.446166], [2.244958, 12.424152], [2.23793, 12.413455], [2.223254, 12.409735], [2.163826, 12.404774], [2.158762, 12.405652], [2.148013, 12.410768], [2.145016, 12.41175], [2.138711, 12.408339], [2.131477, 12.398521], [2.126929, 12.39511], [2.069258, 12.383328], [2.054169, 12.370926], [2.051792, 12.341935], [2.070912, 12.306898], [2.113803, 12.247987], [2.188527, 12.145461], [2.258807, 12.048775], [2.338079, 11.940099], [2.390169, 11.896536], [2.354099, 11.799849], [2.340043, 11.773856], [2.301596, 11.731533], [2.290847, 11.703214], [2.290227, 11.685748], [2.291054, 11.674792], [2.287436, 11.665284], [2.273587, 11.652055], [2.22005, 11.622548], [2.14698, 11.56374], [2.015429, 11.43159], [2.010761, 11.426901], [1.983372, 11.414007], [1.948025, 11.41672], [1.905754, 11.432843], [1.879812, 11.444858], [1.867617, 11.446615], [1.858005, 11.440311], [1.840642, 11.445478], [1.821521, 11.441602], [1.782247, 11.426022], [1.763334, 11.424678], [1.719099, 11.427779], [1.703492, 11.422921], [1.684372, 11.413852], [1.638173, 11.404215], [1.62112, 11.395275], [1.601587, 11.388686], [1.580606, 11.427056], [1.563243, 11.426022], [1.565, 11.432637], [1.567273, 11.446693], [1.56934, 11.453307], [1.475289, 11.460774], [1.455962, 11.464702], [1.439633, 11.473771], [1.433845, 11.459405], [1.423613, 11.453876], [1.423215, 11.453748], [1.411107, 11.449845], [1.398085, 11.440311], [1.389817, 11.428399], [1.388576, 11.420002], [1.398085, 11.398685], [1.381652, 11.388686], [1.359017, 11.378893], [1.33907, 11.366103], [1.330389, 11.347164], [1.336176, 11.330033], [1.345892, 11.316339], [1.347855, 11.303497], [1.330389, 11.288847], [1.323464, 11.297089], [1.316333, 11.29988], [1.309305, 11.297089], [1.302483, 11.288847], [1.296179, 11.299621], [1.2845, 11.312721], [1.273338, 11.318225], [1.268377, 11.30621], [1.270547, 11.298278], [1.280366, 11.288692], [1.28264, 11.278873], [1.281089, 11.271096], [1.268377, 11.247893], [1.235201, 11.263474], [1.218974, 11.268047], [1.200061, 11.268977], [1.191379, 11.267014], [1.186211, 11.263887], [1.18094, 11.261355], [1.172155, 11.261484], [1.173499, 11.2666], [1.165954, 11.277995], [1.156342, 11.28554], [1.145904, 11.269856], [1.135568, 11.260115], [1.130608, 11.247583], [1.149314, 11.217249], [1.153242, 11.183169], [1.158409, 11.165935], [1.148074, 11.1695], [1.128127, 11.178879], [1.117482, 11.178983], [1.113038, 11.173867], [1.106216, 11.155651], [1.100429, 11.15162], [1.067459, 11.144282], [1.062291, 11.14206], [1.063325, 11.126971], [1.067046, 11.12834], [1.07335, 11.133947], [1.082755, 11.131802], [1.083892, 11.12772], [1.082135, 11.115292], [1.082755, 11.110692], [1.085649, 11.108729], [1.095158, 11.10444], [1.097018, 11.104491], [1.099085, 11.092606], [1.099292, 11.081289], [1.100945, 11.070411], [1.10725, 11.059791], [1.118619, 11.048241], [1.117482, 11.032196], [1.114174, 11.027674], [1.106836, 11.034418], [1.099705, 11.044366], [1.097018, 11.049275], [1.086889, 11.052737], [1.05609, 11.05607], [1.052163, 11.055011], [1.041311, 11.049585], [1.035006, 11.049275], [1.033249, 11.051575], [1.027978, 11.061341], [1.025084, 11.063512], [1.01971, 11.065682], [1.014646, 11.070359], [1.007928, 11.075062], [0.986017, 11.078498], [0.981366, 11.080126], [0.976922, 11.078369], [0.970307, 11.06948], [0.964416, 11.057414], [0.955941, 11.044727], [0.952427, 11.042402], [0.95129, 11.032299], [0.951807, 11.021086], [0.955321, 11.01199], [0.963279, 11.00827], [0.969067, 11.002895], [0.969997, 10.991165], [0.967517, 10.979486], [0.963279, 10.974137], [0.945399, 10.974293], [0.931963, 10.976101], [0.901474, 10.992741], [0.77156, 10.990364], [0.675338, 10.988529], [0.612603, 10.976566], [0.487649, 10.933236], [0.499742, 10.975688], [0.483619, 10.979693], [0.487133, 10.983672], [0.48858, 10.987754], [0.489303, 10.991914], [0.490647, 10.996358], [0.49013, 10.999511], [0.488786, 11.001784], [0.486616, 11.003205], [0.374779, 11.025808], [0.287558, 11.043436], [0.059588, 11.089402], [-0.063118, 11.114155], [-0.115062, 11.124658], [-0.166109, 11.13498], [-0.301682, 11.162937], [-0.304473, 11.146788], [-0.300545, 11.137409], [-0.298297, 11.128392], [-0.306126, 11.113535], [-0.318813, 11.101365], [-0.368939, 11.065217], [-0.386923, 11.086405], [-0.405888, 11.101468], [-0.425215, 11.101468], [-0.444387, 11.077439], [-0.449038, 11.062892], [-0.45126, 11.040206], [-0.456686, 11.029612], [-0.46852, 11.020129], [-0.494823, 11.007805], [-0.504228, 10.996358], [-0.504228, 10.996203], [-0.506709, 10.993671], [-0.509706, 10.991449], [-0.512961, 10.989744], [-0.516475, 10.988633], [-0.555439, 10.98995], [-0.576213, 10.987754], [-0.590579, 10.982432], [-0.599829, 10.965766], [-0.607116, 10.94122], [-0.617244, 10.918637], [-0.634763, 10.907966], [-0.68277, 10.953596], [-0.679773, 10.960572], [-0.67228, 10.968505], [-0.667991, 10.976515], [-0.673933, 10.983517], [-0.683235, 10.984344], [-0.690212, 10.981811], [-0.694656, 10.982742], [-0.695999, 10.994033], [-0.703017, 10.994159], [-0.816974, 10.996203], [-0.816974, 10.996462], [-0.822141, 11.003619], [-0.827774, 11.005841], [-0.833665, 11.003412], [-0.839401, 10.996462], [-0.860795, 10.992922], [-0.883171, 10.968634], [-0.900586, 10.966231], [-0.89392, 10.979899], [-0.904359, 10.979486], [-0.909475, 10.98269], [-0.916451, 10.996203], [-0.924047, 11.001423], [-0.932471, 11.003102], [-1.070343, 11.013902], [-1.098714, 11.009562], [-1.10755, 10.994343], [-1.22806, 10.99548], [-1.355287, 10.99672], [-1.38035, 11.001268], [-1.413553, 11.01405], [-1.423584, 11.017911], [-1.436057, 11.022713], [-1.562406, 11.026589], [-1.579821, 11.021215], [-1.587004, 11.003671], [-1.598683, 10.997133], [-1.754074, 10.995635], [-1.972872, 10.993516], [-2.197871, 10.991294], [-2.439769, 10.988943], [-2.634951, 10.986979], [-2.728798, 10.986057], [-2.750706, 10.985842], [-2.751119, 10.996462], [-2.837341, 10.998012], [-2.835946, 10.992224], [-2.838711, 10.985119], [-2.832716, 10.966024], [-2.821761, 10.948299], [-2.815767, 10.929153], [-2.821399, 10.90626], [-2.834861, 10.89161], [-2.850803, 10.879544], [-2.864239, 10.864273], [-2.871629, 10.843448], [-2.882662, 10.797068], [-2.899482, 10.76999], [-2.9031, 10.747149], [-2.908577, 10.737666], [-2.919274, 10.727202], [-2.922323, 10.721207], [-2.919959, 10.711088], [-2.918913, 10.706609], [-2.916949, 10.706609], [-2.912634, 10.705808], [-2.908035, 10.703637], [-2.905141, 10.699193], [-2.905115, 10.692733], [-2.907337, 10.688315], [-2.910154, 10.684491], [-2.916251, 10.668084], [-2.929661, 10.644209], [-2.932504, 10.634313], [-2.928266, 10.615219], [-2.898294, 10.562612], [-2.895865, 10.552768], [-2.894211, 10.531425], [-2.891524, 10.521659], [-2.886899, 10.515793], [-2.873386, 10.502487], [-2.87044, 10.497784], [-2.867391, 10.47825], [-2.859562, 10.465616], [-2.824448, 10.435023], [-2.812149, 10.428822], [-2.795871, 10.426109], [-2.771428, 10.425489], [-2.767552, 10.4212], [-2.771893, 10.41182], [-2.78104, 10.402415], [-2.791995, 10.398152], [-2.80494, 10.397118], [-2.81463, 10.393708], [-2.822329, 10.387584], [-2.829461, 10.378282], [-2.836282, 10.363658], [-2.841295, 10.343272], [-2.841295, 10.322291], [-2.833182, 10.305987], [-2.824448, 10.302215], [-2.814216, 10.301078], [-2.80569, 10.299011], [-2.802098, 10.292319], [-2.799669, 10.280924], [-2.793184, 10.278547], [-2.784451, 10.278805], [-2.774839, 10.27524], [-2.764865, 10.269116], [-2.758354, 10.266119], [-2.754943, 10.260796], [-2.754375, 10.247954], [-2.757682, 10.234648], [-2.765124, 10.225837], [-2.785381, 10.210101], [-2.798455, 10.189534], [-2.79892, 10.169613], [-2.788481, 10.124448], [-2.788481, 10.092363], [-2.788481, 10.038768], [-2.783572, 10.018511], [-2.760886, 9.984766], [-2.754375, 9.966783], [-2.755564, 9.941151], [-2.764865, 9.895754], [-2.760524, 9.870536], [-2.736753, 9.832579], [-2.733911, 9.822787], [-2.740267, 9.812606], [-2.774839, 9.77434], [-2.791582, 9.740931], [-2.795303, 9.720002], [-2.788481, 9.699254], [-2.780317, 9.690237], [-2.774839, 9.689306], [-2.769258, 9.689926], [-2.760524, 9.685586], [-2.75546, 9.677498], [-2.75422, 9.668352], [-2.751016, 9.659179], [-2.743404, 9.653325], [-2.740164, 9.650833], [-2.752928, 9.639904], [-2.761506, 9.625253], [-2.766467, 9.608898], [-2.768018, 9.592801], [-2.766261, 9.576523], [-2.761093, 9.566239], [-2.725281, 9.533864], [-2.689211, 9.488724], [-2.720475, 9.459217], [-2.744918, 9.408109], [-2.763677, 9.391883], [-2.787603, 9.393717], [-2.810418, 9.411106], [-2.910154, 9.542726], [-2.959892, 9.638612], [-2.977824, 9.685172], [-2.989994, 9.708427], [-3.005677, 9.724162], [-3.024643, 9.728606], [-3.059059, 9.718555], [-3.077094, 9.719408], [-3.094561, 9.733851], [-3.104379, 9.757132], [-3.116911, 9.805294], [-3.136936, 9.82953], [-3.160112, 9.834698], [-3.182566, 9.835163], [-3.200007, 9.845369], [-3.204399, 9.865368], [-3.202229, 9.888958], [-3.202565, 9.908234], [-3.21476, 9.915623], [-3.230237, 9.90472], [-3.26406, 9.857074], [-3.277857, 9.843457], [-3.301732, 9.841132], [-3.311809, 9.854128], [-3.313566, 9.874566], [-3.312739, 9.894513], [-3.317183, 9.901335], [-3.327518, 9.897304], [-3.339249, 9.890095], [-3.348344, 9.886995], [-3.359015, 9.892498], [-3.376559, 9.908492], [-3.389168, 9.913246], [-3.546471, 9.926139], [-3.606261, 9.918181], [-3.62334, 9.921747], [-3.634011, 9.92924], [-3.640548, 9.937379], [-3.648171, 9.944588], [-3.661658, 9.948929], [-3.665043, 9.946603], [-3.674319, 9.93526], [-3.679641, 9.932211], [-3.685946, 9.933452], [-3.698994, 9.94079], [-3.706462, 9.941823], [-3.755037, 9.93588], [-3.76961, 9.931333], [-3.779739, 9.924692], [-3.795758, 9.907665], [-3.804259, 9.901386], [-3.823483, 9.895702], [-3.889706, 9.894462], [-3.891625, 9.8939], [-3.910093, 9.888493], [-3.947739, 9.86436], [-3.969185, 9.858986], [-3.984042, 9.851157], [-3.988253, 9.834801], [-3.994609, 9.820771], [-4.026675, 9.820306], [-4.034969, 9.817619], [-4.050317, 9.810307], [-4.05135, 9.807568], [-4.051712, 9.802349], [-4.053675, 9.79762], [-4.059877, 9.796277], [-4.065716, 9.798085], [-4.076155, 9.803795], [-4.13305, 9.820409], [-4.150259, 9.818291], [-4.168294, 9.804829], [-4.196974, 9.764961], [-4.215423, 9.754858], [-4.253095, 9.750052], [-4.270329, 9.743928], [-4.283636, 9.732017], [-4.279191, 9.731138], [-4.267513, 9.727263], [-4.297795, 9.695843], [-4.303299, 9.686723], [-4.303454, 9.677912], [-4.300482, 9.654296], [-4.302988, 9.641712], [-4.315933, 9.616623], [-4.322477, 9.608981], [-4.322548, 9.608898], [-4.349678, 9.620034], [-4.365026, 9.624168], [-4.368023, 9.608381], [-4.367817, 9.591974], [-4.371175, 9.582956], [-4.38487, 9.589416], [-4.391588, 9.600294], [-4.400166, 9.633134], [-4.409106, 9.647733], [-4.433368, 9.653469], [-4.469206, 9.651763], [-4.50171, 9.655019], [-4.515921, 9.67569], [-4.513647, 9.694009], [-4.503829, 9.719899], [-4.501607, 9.737107], [-4.503958, 9.742016], [-4.509953, 9.745065], [-4.517782, 9.746615], [-4.535946, 9.746615], [-4.539098, 9.744703], [-4.539899, 9.740776], [-4.543051, 9.734006], [-4.547961, 9.720261], [-4.548426, 9.706799], [-4.552198, 9.696464], [-4.566719, 9.692407], [-4.57832, 9.696515], [-4.592712, 9.717832], [-4.604029, 9.727159], [-4.616949, 9.713853], [-4.628731, 9.707703], [-4.641107, 9.706024], [-4.655809, 9.706075], [-4.654724, 9.703543], [-4.658264, 9.6976], [-4.664827, 9.690857], [-4.672914, 9.685586], [-4.681079, 9.682072], [-4.681803, 9.682847], [-4.681544, 9.686723], [-4.686608, 9.692407], [-4.700096, 9.69791], [-4.70547, 9.702096], [-4.707641, 9.70977], [-4.709088, 9.720312], [-4.712808, 9.726849], [-4.724384, 9.737107], [-4.730017, 9.744238], [-4.733324, 9.749639], [-4.738337, 9.753153], [-4.748646, 9.754496], [-4.758594, 9.753308], [-4.762134, 9.749949], [-4.760454, 9.745324], [-4.75477, 9.740208], [-4.769963, 9.737365], [-4.783192, 9.758372], [-4.796447, 9.754496], [-4.799315, 9.762532], [-4.801227, 9.766459], [-4.810115, 9.77434], [-4.810115, 9.781781], [-4.8004, 9.78111], [-4.791899, 9.78235], [-4.775905, 9.788008], [-4.785414, 9.804829], [-4.790323, 9.827515], [-4.798462, 9.842527], [-4.817557, 9.836455], [-4.824274, 9.856971], [-4.83846, 9.86945], [-4.858329, 9.875703], [-4.881739, 9.877409], [-4.890059, 9.879501], [-4.893495, 9.884204], [-4.898017, 9.888907], [-4.909386, 9.891051], [-4.917085, 9.886478], [-4.922356, 9.87746], [-4.928015, 9.870949], [-4.936671, 9.873998], [-4.966075, 9.901025], [-4.967315, 9.912368], [-4.952949, 9.953373], [-4.954809, 9.959703], [-4.965713, 9.983113], [-4.976927, 9.997608], [-4.981397, 10.007737], [-4.960209, 10.008486], [-4.956411, 10.021999], [-4.963336, 10.040319], [-4.974524, 10.055537], [-4.986642, 10.063263], [-4.999793, 10.069464], [-5.010516, 10.07905], [-5.015581, 10.097111], [-5.025528, 10.088739], [-5.037233, 10.083753], [-5.048343, 10.085355], [-5.056483, 10.097111], [-5.042866, 10.103338], [-5.049377, 10.105353], [-5.055139, 10.10804], [-5.061702, 10.110056], [-5.070099, 10.110159], [-5.06103, 10.118453], [-5.037595, 10.126489], [-5.039455, 10.134344], [-5.064725, 10.150803], [-5.070719, 10.161009], [-5.06395, 10.179044], [-5.090718, 10.177933], [-5.09015, 10.188811], [-5.081597, 10.206897], [-5.084414, 10.227439], [-5.087333, 10.220824], [-5.091907, 10.214339], [-5.097849, 10.209275], [-5.104903, 10.206949], [-5.117073, 10.208034], [-5.11821, 10.212479], [-5.114412, 10.218292], [-5.111802, 10.223718]]]}}]}