{"type": "FeatureCollection", "features": [{"type": "Feature", "properties": {"NAME": "Mali", "ABBREVN": "Mali", "SUBJECTO": "Mali", "BORDERPRECISION": 1, "PARTOF": "Mali"}, "geometry": {"type": "MultiPolygon", "coordinates": [[[[-15.325388875500906, 11.926575266081713], [-15.32538887550091, 11.926575266081713], [-15.549581494824636, 11.919748865324877], [-15.736251798169363, 11.843088709074877], [-15.808596578137625, 11.84292086239519], [-16.08601566840862, 11.969427667815111], [-16.247872319714773, 12.102531992155932], [-16.278988805310476, 12.210499368864916], [-16.424529042737234, 12.248307787138842], [-16.566605535046804, 12.309811197478197], [-16.570601430432546, 12.311540209013842], [-16.69579407264446, 12.412958704192064], [-16.772099462048757, 12.597077928740404], [-16.725502934949148, 12.787829004485033], [-16.76820847083782, 13.03539904232683], [-16.776349034802664, 13.124526582915209], [-16.77557274390911, 13.145343385893725], [-16.76711746741985, 13.35967596646013], [-16.68941208411907, 13.448810182768725], [-16.494280782239187, 13.474656664091967], [-16.452353444592703, 13.54464968319597], [-16.45510384132122, 13.571074091154955], [-16.458260503308523, 13.601410471159838], [-16.470890965955007, 13.722545229155443], [-16.640429463879812, 13.842927538115404], [-16.671059575574148, 13.912758432585619], [-16.696700063245046, 14.077932916838549], [-16.870419469372976, 14.363524996001146], [-17.03325803864763, 14.564789325170201], [-17.050065007703054, 14.585562311369799], [-17.220538106457937, 14.725009523589037], [-17.43318077613567, 14.807168565947435], [-17.190234151379812, 14.96020372982683], [-16.864769902722585, 15.2977147924489], [-16.600319829480398, 15.749488435942553], [-16.450055089490164, 16.11839064236345], [-16.40569969703411, 16.489955507475756], [-16.37880417396282, 16.71591147061052], [-16.125475850598562, 17.30111464138689], [-16.04107281257366, 17.66987761135759], [-7.711186042968258, 17.875545035939695], [-0.47785827660806, 18.757658178178744], [0.757100122526605, 18.757658178178744], [4.285552691482803, 18.05196766438751], [5.344088462169662, 17.169854522148455], [5.167665833721848, 15.052782980774737], [4.285552691482803, 13.994247210087877], [-1.35997141884711, 10.818639898027314], [-3.477042960220825, 10.289372012683884], [-6.829072900729209, 10.112949384236067], [-15.158031430737722, 11.876103006560228], [-15.325388875500906, 11.926575266081713]]]]}}]}